{"version": 0.6, "generator": "Overpass API 0.7.56.9 76e5016d", "osm3s": {"timestamp_osm_base": "2021-06-29T09:06:27Z", "timestamp_areas_base": "2021-06-29T03:23:23Z", "copyright": "The data included in this document is from www.openstreetmap.org. The data is made available under ODbL."}, "elements": [{"type": "node", "id": 775745348, "lat": 52.5037269, "lon": 13.3640559, "tags": {"addr:city": "Berlin", "addr:country": "DE", "addr:housenumber": "24-26", "addr:postcode": "10785", "addr:street": "L\u00fctzowstra\u00dfe", "addr:suburb": "Tiergarten", "amenity": "hospital", "healthcare": "hospital", "name": "Evangelische Elisabeth Klinik", "operator": "Johannesstift Diakonie", "phone": "+49 30 25061", "toilets:wheelchair": "yes", "website": "https://www.pgdiakonie.de/evangelische-elisabeth-klinik", "wheelchair": "yes"}}, {"type": "node", "id": 1257340412, "lat": 52.47781, "lon": 13.3717015, "tags": {"amenity": "hospital", "healthcare": "hospital", "name": "Klinik f\u00fcr Kinder- und Jugendmedizin", "operator": "St. Joseph Krankenhaus", "website": "https://www.sjk.de/kliniken/klinik-fuer-kinder-jugendmedizin"}}, {"type": "way", "id": 4610129, "nodes": [1213566849, 6480265383, 1406683109, 6480265118, 411317586, 6480265119, 411317587, 564640067, 411317591, 411317592, 1213566631, 411317883, 411317881, 1213566524, 29121105, 1213566849], "tags": {"addr:city": "Berlin", "addr:housenumber": "1", "addr:postcode": "13347", "addr:street": "Heinz-Galinski-Stra\u00dfe", "amenity": "hospital", "healthcare": "hospital", "name": "J\u00fcdisches Krankenhaus Berlin", "name:en": "Berlin Jewish Hospital", "phone": "+49 30 49940", "toilets:wheelchair": "yes", "website": "https://www.juedisches-krankenhaus.de/", "wheelchair": "yes", "wheelchair:description": "Hauptgeb\u00e4ude liegt auf einem H\u00fcgel.", "wikidata": "Q319026"}}, {"type": "way", "id": 4637750, "nodes": [3925729735, 790306496, 4254184199, 4254135054, 29488417, 1964486171, 418781698, 418781695, 418781694, 3925729744, 3925729741, 3925729735], "tags": {"amenity": "hospital", "healthcare": "hospital", "name": "DRK Kliniken Berlin | Mitte", "wheelchair": "yes"}}, {"type": "way", "id": 4750929, "nodes": [30301101, 30301103, 2836037697, 6968952157, 6968952158, 6968952146, 6968952159, 6968952153, 296324164, 296324163, 6968952155, 6968952156, 30301105, 6968952154, 6968952160, 6968952161, 6968952162, 5081271437, 8167853813, 5020547105, 2268083434, 2268104413, 311411895, 5022322129, 5022322130, 30301107, 5224643116, 5729133035, 5729133036, 30301096, 30301098, 5729123651, 2309794985, 30301100, 6623052077, 7809566295, 7809566296, 8109194664, 5729119689, 8109194672, 352747774, 5729119688, 5729119687, 30301101], "tags": {"amenity": "hospital", "emergency": "yes", "healthcare": "hospital", "name": "Charit\u00e9 Campus Virchow Klinikum", "phone": "+49 30 45050", "website": "https://www.charite.de/", "wheelchair": "yes", "wikidata": "Q2172279", "wikipedia": "de:Rudolf-Virchow-Krankenhaus"}}, {"type": "way", "id": 4765926, "nodes": [29711653, 29711655, 60042062, 29711656, 5431707315, 5431707316, 29711657, 822263845, 29711658, 29711659, 5469272278, 5469272277, 5469272276, 5469272275, 29711652, 29711653], "tags": {"addr:city": "Berlin", "addr:country": "DE", "addr:housenumber": "2", "addr:postcode": "13509", "addr:street": "Am Nordgraben", "addr:suburb": "Borsigwalde", "amenity": "hospital", "contact:phone": "+49 30 130120", "contact:website": "https://www.vivantes.de/huk", "emergency": "yes", "healthcare": "hospital", "name": "Vivantes Humboldt-Klinikum", "wheelchair": "yes", "wikidata": "Q2528982", "wikipedia": "de:Vivantes Humboldt-Klinikum"}}, {"type": "way", "id": 24054786, "nodes": [29192119, 3903378095, 1502932796, 29192120, 1502932794, 1503729782, 3272727353, 1503061799, 1503061810, 1503061816, 1503061806, 3903344582, 1502932973, 1503718015, 1503718216, 1502933083, 3903346014, 1503048137, 3903345716, 3903345682, 3903345424, 3903345407, 1503047486, 1503047438, 1503071601, 1503047916, 1502933082, 1502933079, 610532721, 1502932855, 1502932858, 29192119], "tags": {"addr:city": "Berlin", "addr:country": "DE", "addr:housenumber": "5-11", "addr:postcode": "10115", "addr:street": "Gro\u00dfe Hamburger Stra\u00dfe", "addr:suburb": "Mitte", "amenity": "hospital", "contact:phone": "+4930 23110", "contact:website": "http://www.alexianer-berlin-hedwigkliniken.de/st_hedwig_krankenhaus", "healthcare": "hospital", "name": "St. Hedwig-Krankenhaus", "name:en": "St. Hedwig Hospital", "name:nl": "St. Hedwigziekenhuis", "toilets:wheelchair": "yes", "wheelchair": "yes", "wheelchair:description": "Im Erdgeschoss gibt es \u00fcber den Haupteingang im linken Fl\u00fcgel ein barrierefreies WC", "wikidata": "Q2318710", "wikipedia": "de:St. Hedwig-Krankenhaus"}}, {"type": "way", "id": 24931203, "nodes": [4250436503, 349135070, 349135071, 349135038, 3283742192, 349135043, 3450322295, 1497888291, 4210456685, 4210456704, 270923429, 4210456792, 671063449, 671063452, 671063455, 671063450, 614637126, 614637122, 4210456821, 4210456807, 687621949, 4210456781, 614637137, 2132949669, 2132949667, 4210456637, 4210456616, 4210456610, 614637070, 614637038, 3228087607, 614636996, 4225753887, 4225753884, 4225753878, 614636960, 614637006, 4250436511, 672826120, 4250436503], "tags": {"addr:city": "Berlin", "addr:country": "DE", "addr:housenumber": "13", "addr:postcode": "10115", "addr:street": "Scharnhorststra\u00dfe", "addr:suburb": "Mitte", "amenity": "hospital", "contact:phone": "+493028410", "emergency": "yes", "healthcare": "hospital", "landuse": "military", "name": "Bundeswehrkrankenhaus Berlin", "website": "http://www.bundeswehrkrankenhaus-berlin.de", "wheelchair": "yes", "wikidata": "Q1009265"}}, {"type": "way", "id": 24950668, "nodes": [271134959, 5863671766, 271134960, 6298042997, 271134961, 1681991448, 6298043010, 1681991535, 1681991490, 1681991497, 292496707, 6472439479, 1681991368, 271134962, 271134963, 5476421896, 6472457905, 6472457904, 6298043006, 1020963811, 271134966, 265048005, 265048006, 271134959], "tags": {"amenity": "hospital", "contact:phone": "+49 30 37020", "contact:website": "https://www.pgdiakonie.de/evangelisches-waldkrankenhaus-spandau/", "denomination": "protestant", "healthcare": "hospital", "name": "Evangelisches Waldkrankenhaus Spandau", "operator": "Johannesstift Diakonie", "religion": "christian", "wheelchair": "yes", "wikidata": "Q15110572", "wikipedia": "de:Evangelisches Waldkrankenhaus Spandau"}}, {"type": "way", "id": 26775078, "nodes": [293690285, 1375334871, 1375334858, 293690289, 293682082, 2157221414, 5949886966, 5949886968, 293690293, 293682084, 2157221386, 2157221385, 2157221383, 293690294, 2157221428, 2157221441, 293690295, 293690296, 2157221478, 2157221482, 2157221500, 2157260404, 2157221519, 2157221537, 2157221555, 2157221559, 2157221565, 2157221569, 2157221572, 2157221574, 2157221578, 2157221576, 2157221579, 2157221570, 293690297, 293690285], "tags": {"addr:city": "Berlin", "addr:country": "DE", "addr:housenumber": "221", "addr:postcode": "14089", "addr:street": "Kladower Damm", "amenity": "hospital", "emergency": "yes", "healthcare": "hospital", "name": "Gemeinschaftskrankenhaus Havelh\u00f6he", "wheelchair": "yes"}}, {"type": "way", "id": 30631242, "nodes": [338790111, 5409354463, 5409354462, 5409354461, 627399768, 338790113, 338790114, 5409354295, 481142602, 5409354456, 338790117, 627399602, 338790111], "tags": {"addr:city": "Berlin", "addr:country": "DE", "addr:housenumber": "11", "addr:postcode": "14165", "addr:street": "Walterh\u00f6ferstra\u00dfe", "addr:suburb": "Zehlendorf", "amenity": "hospital", "healthcare": "hospital", "loc_name": "Behring-Krankenhaus", "name": "Helios Klinikum Emil von Behring", "operator": "Helios Kliniken", "phone": "+49 30 81020", "source": "Yahoo;extrapolation", "toilets:wheelchair": "yes", "website": "http://www.helios-kliniken.de", "wheelchair": "yes", "wikidata": "Q50038610"}}, {"type": "way", "id": 31284439, "nodes": [348072354, 5309404339, 348058280, 5309404340, 5309404341, 5309404342, 5309404343, 5309404344, 5309404345, 348058282, 5309404338, 5309404337, 5309404336, 348072348, 456316367, 457111211, 5309404331, 5309404332, 5309404333, 5309404334, 5309404335, 348072351, 456316351, 456316350, 348072354], "tags": {"addr:city": "Berlin", "addr:country": "DE", "addr:housenumber": "40", "addr:postcode": "14163", "addr:street": "Argentinische Allee", "addr:suburb": "Zehlendorf", "amenity": "hospital", "denomination": "seventh_day_adventist", "email": "info@waldfriede.de", "emergency": "yes", "healthcare": "hospital", "healthcare:speciality": "general;proctology", "name": "Krankenhaus Waldfriede", "operator": "Krankenhaus Waldfriede e. V", "operator:type": "private_non_profit", "phone": "+49 30 818100", "religion": "christian", "start_date": "1920-04-15", "website": "https://www.krankenhaus-waldfriede.de/", "wheelchair": "yes", "wikidata": "Q30193282", "wikipedia": "de:Krankenhaus Waldfriede"}}, {"type": "way", "id": 32204608, "nodes": [1965564013, 361152225, 3817568981, 3817568982, 361152230, 1852994596, 1852994597, 3817568970, 6445973305, 3817568961, 1852994579, 2706842364, 1852994580, 361152257, 361152260, 438233481, 438233480, 438233483, 361152272, 655997892, 2241193645, 1852994599, 2241193697, 361152218, 1852994605, 3817566012, 1965564013], "tags": {"addr:city": "Berlin", "addr:country": "DE", "addr:housenumber": "9", "addr:postcode": "12559", "addr:street": "Erwin-Bock-Stra\u00dfe", "addr:suburb": "K\u00f6penick", "amenity": "hospital", "barrier": "fence", "emergency": "yes", "healthcare": "hospital", "name": "DRK Kliniken Berlin - K\u00f6penick", "name:de": "DRK Kliniken Berlin - K\u00f6penick", "name:en": "German Red Cross Hospital Berlin K\u00f6penick", "source": "Geoportal Berlin / Hauskoordinaten", "wheelchair": "yes", "wikidata": "Q19963300"}}, {"type": "way", "id": 32424425, "nodes": [447897889, 8416693727, 8416693735, 8416693732, 8416693731, 8416693728, 364624338, 364624307, 364837173, 364624325, 3158069191, 3158069182, 364837171, 5838008194, 5838008195, 3159074113, 364624206, 3158068899, 364624348, 3989332666, 3158068756, 447897892, 3158067675, 2159127962, 8416693737, 2159127957, 8416693736, 447897889], "tags": {"addr:city": "Berlin", "addr:housenumber": "125", "addr:postcode": "12157", "addr:street": "Rubensstra\u00dfe", "addr:suburb": "Sch\u00f6neberg", "amenity": "hospital", "barrier": "wall", "emergency": "yes", "healthcare": "hospital", "loc_name": "Auguste-Victoria-Krankenhaus", "name": "Auguste-Viktoria-Klinikum", "operator": "Vivantes", "operator:type": "public", "phone": "+49 30 130200", "short_name": "AVK", "website": "https://www.vivantes.de/avk", "wheelchair": "limited", "wikidata": "Q766049", "wikipedia": "de:Auguste-Viktoria-Klinikum Berlin"}}, {"type": "way", "id": 41447057, "nodes": [1749505325, 1695198350, 4536054862, 1671277738, 1671277765, 1671277735, 5782268231, 1690353821, 598289757, 598289751, 598289747, 598289742, 598282351, 4536054871, 5782268958, 4536054870, 4536054882, 530697100, 4536054883, 4536054884, 4536054885, 4536054886, 598284347, 4536054887, 4536054888, 5782268961, 5782268959, 5782268960, 5782268962, 4536055189, 4536055190, 29267693, 4536055192, 4536055191, 5782268964, 5782268963, 530697144, 530697093, 1671277768, 1695212877, 1749505325], "tags": {"addr:housenumber": "15", "addr:street": "Fr\u00f6belstra\u00dfe", "amenity": "hospital", "healthcare": "hospital", "name": "Vivantes Klinikum im Friedrichshain, Standort Prenzlauer Berg", "website": "https://www.vivantes.de/fuer-sie-vor-ort/klinikum-im-friedrichshain-prenzlauer-berg/", "wheelchair": "yes"}}, {"type": "way", "id": 46839073, "nodes": [598234422, 3887059092, 598234413, 598234414, 598234415, 3887059238, 3887059240, 598234417, 2927228501, 598234438, 6088618288, 598234435, 6088618289, 5065374981, 598234430, 598234433, 3887059055, 598234427, 3887058994, 6338126189, 6338126188, 598234432, 598234429, 598234426, 598234424, 598234423, 598234425, 3887058824, 598234418, 598234421, 3887058936, 3887058930, 598234419, 3887059085, 598234422], "tags": {"addr:city": "Berlin", "addr:country": "DE", "addr:housenumber": "32", "addr:postcode": "10365", "addr:street": "Fanningerstra\u00dfe", "alt_name": "Oskar-Ziethen-Krankenhaus", "amenity": "hospital", "contact:website": "https://www.sana-kl.de/", "healthcare": "hospital", "name": "Sana Klinikum Lichtenberg", "operator": "Sana Kliniken Berlin-Brandenburg GmbH", "wheelchair": "yes", "wikidata": "Q2033508", "wikipedia": "de:Oskar-Ziethen-Krankenhaus"}}, {"type": "way", "id": 48992251, "nodes": [621881168, 3832203201, 621881166, 3832203196, 3832203194, 621881164, 3832203193, 3832203192, 2823085817, 621761999, 3166518610, 1260964586, 3166518565, 621881162, 1490626265, 621881161, 621881159, 1440882489, 1440882488, 3115096717, 621881170, 3166517914, 3166517925, 621881172, 621881203, 3166519024, 3166519032, 3166519072, 1440882606, 560814774, 560814752, 1260964537, 650358499, 621881168], "tags": {"addr:city": "Berlin", "addr:country": "DE", "addr:housenumber": "23", "addr:postcode": "12099", "addr:street": "Wenckebachstra\u00dfe", "addr:suburb": "Tempelhof", "amenity": "hospital", "healthcare": "hospital", "heritage": "4", "heritage:operator": "lda", "lda:criteria": "Gesamtanlage", "name": "Vivantes Wenckebach-Klinikum", "old_name": "2. Garnison-Lazarett", "ref:lda": "09055132", "source": "Geoportal Berlin / Hauskoordinaten", "wheelchair": "yes"}}, {"type": "way", "id": 49184262, "nodes": [623916112, 2936334753, 623929768, 2221804573, 2221807367, 623916117, 8793942934, 2221809397, 623916119, 623916120, 6080845418, 8793942933, 623916123, 623916125, 623916127, 623916129, 623916131, 8793939855, 8793939856, 7417765770, 623916134, 8793939857, 1800271949, 623929770, 623916112], "tags": {"addr:city": "Berlin", "addr:country": "DE", "addr:housenumber": "30", "addr:postcode": "13467", "addr:street": "Kurhausstra\u00dfe", "amenity": "hospital", "email": "info@dominikus-berlin.de", "emergency": "yes", "fax": "+4930 4042 408", "healthcare": "hospital", "name": "Dominikus-Krankenhaus", "phone": "+4930 4092 0", "website": "http://www.dominikus-berlin.de/"}}, {"type": "way", "id": 49876720, "nodes": [603073221, 30695360, 513454656, 6521431774, 6521431775, 55034766, 6521431772, 6521431771, 513455215, 6521431777, 55034765, 513455136, 513455149, 513455162, 513455179, 513455220, 513455197, 513455211, 513455253, 513455262, 513455275, 513455286, 513455295, 513455311, 8477207983, 8477207984, 3869458086, 8477207976, 3869458091, 3869458095, 338397619, 8477207982, 8477207988, 8477207985, 8477207981, 8477207989, 8477207986, 8477207990, 8477207991, 8477207987, 513456682, 4999486277, 4999486276, 4999486275, 4999486278, 8477208000, 8477207999, 8477207994, 8477207998, 1899095519, 4999486274, 4999486273, 4999486272, 4999486269, 4999486270, 4999486271, 633550327, 633550325, 513523092, 633550302, 1899095520, 1899095518, 5855733020, 5855733021, 1899095516, 4999486262, 513460060, 4999486265, 4999486263, 4999486264, 4466562225, 4999486267, 4999486266, 1899095503, 1899095508, 4466562224, 1899095495, 1899095507, 1899095496, 1899095499, 1864168519, 1864168518, 6521431770, 6521431769, 603073221], "tags": {"addr:city": "Berlin", "addr:country": "DE", "addr:housenumber": "79", "addr:postcode": "10365", "addr:street": "Herzbergstra\u00dfe", "addr:suburb": "Lichtenberg", "amenity": "hospital", "contact:website": "https://www.keh-berlin.de/", "denomination": "protestant", "emergency": "yes", "healthcare": "hospital", "name": "Evangelisches Krankenhaus K\u00f6nigin Elisabeth Herzberge", "operator": "Evangelisches Krankenhaus K\u00f6nigin Elisabeth Herzberge gGmbH", "religion": "christian", "short_name": "KEH", "wheelchair": "yes", "wikidata": "Q1381349", "wikipedia": "de:Evangelisches Krankenhaus K\u00f6nigin Elisabeth Herzberge"}}, {"type": "way", "id": 53038853, "nodes": [3046902287, 630481251, 671696768, 46494611, 3047048619, 671696775, 3047048618, 3046902040, 4286289680, 3047048634, 3047048636, 3047048644, 1958758658, 255542319, 630481335, 630481340, 630481306, 444758082, 2089221788, 444758083, 444758088, 3046902287], "tags": {"addr:city": "Berlin", "addr:country": "DE", "addr:housenumber": "130", "addr:postcode": "14050", "addr:street": "Spandauer Damm", "addr:suburb": "Westend", "amenity": "hospital", "emergency": "yes", "name": "DRK Kliniken Westend", "operator": "Deutsches Rotes Kreuz Schwesternschaft Berlin Gemeinn\u00fctzige Krankenhaus GmbH", "phone": "+49303035-0", "website": "http://www.drk-kliniken-berlin.de/westend/lageplan-der-drk-kliniken-berlin-westend/", "wheelchair": "yes"}}, {"type": "way", "id": 53224317, "nodes": [335850398, 3984303527, 335850399, 3984303130, 3984303076, 311645312, 3984302454, 516165976, 8524756517, 516185129, 3197128064, 516185135, 6793948571, 6793948572, 6828726201, 516439443, 516185137, 3197128065, 516185138, 516185140, 3986466902, 366709871, 3986468994, 3388373799, 366709876, 3986470394, 3986470304, 3388373798, 354351119, 3986469866, 3986469878, 673662213, 673662204, 354351122, 3986467517, 3986467507, 1764529573, 3986468668, 3986469264, 1764529553, 354351125, 3388373797, 3986465967, 3986466097, 3913446210, 3913446208, 3984300452, 335850398], "tags": {"addr:city": "Berlin", "addr:housenumber": "30", "addr:postcode": "12203", "addr:street": "Hindenburgdamm", "amenity": "hospital", "emergency": "yes", "healthcare": "hospital", "healthcare:speciality": "general", "name": "Charit\u00e9-Campus Benjamin Franklin", "operator": "Charit\u00e9", "operator:type": "public", "toilets:wheelchair": "yes", "website": "https://www.charite.de/die_charite/campi/campus_benjamin_franklin/", "wheelchair": "yes"}}, {"type": "way", "id": 69869582, "nodes": [5008077421, 310433174, 310427561, 310427566, 1656500929, 1656500934, 1656500940, 1656500972, 1656500978, 1659650422, 1994471484, 1994471487, 1994471491, 5008077421], "tags": {"addr:city": "Berlin", "addr:country": "DE", "addr:housenumber": "1", "addr:postcode": "12526", "addr:street": "H\u00f6hensteig", "addr:suburb": "Bohnsdorf", "amenity": "hospital", "emergency": "yes", "healthcare": "hospital", "name": "Krankenhaus Hedwigsh\u00f6he", "website": "https://www.alexianer-berlin-hedwigkliniken.de/krankenhaus-hedwigshoehe/einrichtungen/ambulantes-op-zentrum-aoz/", "wheelchair": "yes", "wikidata": "Q1764107"}}, {"type": "way", "id": 93478285, "nodes": [3096834145, 3096834070, 3096834069, 3096834535, 3096834066, 3096834494, 3096832768, 3096780597, 3096832766, 3096834456, 3096834455, 3096832508, 3096832764, 3096780596, 3096834493, 3096780594, 3096832763, 3096834830, 3096834145], "tags": {"amenity": "hospital", "building": "yes", "contact:fax": "+49 30 82630-51", "contact:phone": "+49 30 82630-52", "healthcare": "hospital", "name": "Klinik am Roseneck", "operator": "Service KG Gesellschaft f\u00fcr Klinik-, Hotel- und Gastst\u00e4tten-Dienste mbH & Co."}}, {"type": "way", "id": 94691063, "nodes": [1336741970, 1099335561, 1099335632, 1099335609, 358577148, 2928083191, 1336742052, 2928084552, 1336742067, 1336742089, 1336741989, 1336741970], "tags": {"addr:city": "Berlin", "addr:country": "DE", "addr:housenumber": "69", "addr:postcode": "14129", "addr:street": "Potsdamer Chaussee", "addr:suburb": "Nikolassee", "amenity": "hospital", "name": "Kliniken im Theodor-Wenzel-Werk", "phone": "+49 30 81090", "website": "https://tww-berlin.de/kliniken"}}, {"type": "way", "id": 99146927, "nodes": [4975813487, 4975813488, 1822170761, 29421743, 6708347737, 6708347748, 905419095, 6708347753, 6708347758, 2489190882, 29421744, 311528254, 6708347702, 311528256, 905419392, 311528257, 4975813487], "tags": {"amenity": "hospital", "healthcare": "hospital", "name": "Maria Heimsuchung Caritas Klinikum Pankow", "wheelchair": "yes"}}, {"type": "way", "id": 114201147, "nodes": [1293975068, 1293975059, 389913416, 1293975057, 918358475, 918358229, 2497632283, 919095154, 919095120, 919095124, 919095150, 1293975068], "tags": {"addr:city": "Berlin", "addr:country": "DE", "addr:housenumber": "2", "addr:postcode": "14059", "addr:street": "Heubnerweg", "addr:suburb": "Charlottenburg", "amenity": "hospital", "contact:email": "info@schlosspark-klinik.de", "contact:fax": "+49 30 32641685", "contact:phone": "+49 30 32640", "contact:website": "http://www.schlosspark-klinik.de", "healthcare": "hospital", "name": "Schlosspark-Klinik", "note": "Gepr\u00fcft am 27. Dez 2015", "wheelchair": "yes", "wikidata": "Q19308767"}}, {"type": "way", "id": 119398219, "nodes": [1341732878, 1346892464, 1346892469, 1341734248, 1341748795, 5504503837, 332292188, 5504503838, 5504504206, 5504504205, 5504504193, 5504504194, 332292186, 5504503900, 5504504195, 5504501792, 5504501793, 5504501761, 5504501090, 5504503909, 5504501091, 5504501093, 5504503908, 5504501102, 5504503907, 5504503906, 75159300, 520447771, 520447774, 2053322219, 1341744194, 1341732872, 2053322198, 779195839, 5504503593, 1341741133, 2030492130, 1341732878], "tags": {"addr:city": "Berlin", "addr:country": "DE", "addr:housenumber": "12", "addr:postcode": "10713", "addr:street": "Paretzer Stra\u00dfe", "addr:suburb": "Wilmersdorf", "amenity": "hospital", "contact:website": "http://www.sankt-gertrauden.de", "healthcare": "hospital", "name": "Sankt Gertrauden-Krankenhaus", "operator": "Gesellschaft der Katharinenschwestern", "phone": "+49 30 82720", "toilets:wheelchair": "yes", "wheelchair": "yes", "wikidata": "Q20181173"}}, {"type": "way", "id": 125542249, "nodes": [1394080314, 652425355, 652425356, 652425354, 1394080110, 1394080054, 1394080086, 1394080156, 1394080229, 1394080227, 1394080232, 1394080254, 1394080271, 1394080288, 1394080301, 1394080308, 1394080323, 1394080395, 1394080375, 1394080314], "tags": {"amenity": "hospital", "name": "Vivantes - Haus Hohengatow", "operator": "Vivantes"}}, {"type": "way", "id": 132056990, "nodes": [1344105438, 1270806916, 6877300652, 1270806888, 1270806837, 5319053998, 1343919412, 4297702001, 4297701999, 1270806883, 1344105438], "tags": {"addr:city": "Berlin", "addr:country": "DE", "addr:housenumber": "27-31", "addr:postcode": "14193", "addr:street": "Caspar-They\u00df-Stra\u00dfe", "addr:suburb": "Schmargendorf", "amenity": "hospital", "barrier": "fence", "contact:email": "info.martin-luther@pgdiakonie.de", "contact:fax": "+49 30 8955-2015", "contact:phone": "+49 30 89550", "contact:website": "http://www.pgdiakonie.de/martin-luther-krankenhaus", "emergency": "yes", "healthcare": "hospital", "name": "Martin-Luther-Krankenhaus", "note": "Gepr\u00fcft am 25./26. Dez 2015", "operator": "Johannesstift Diakonie", "wheelchair": "yes", "wikidata": "Q1903245"}}, {"type": "way", "id": 137033906, "nodes": [1503289349, 1503289367, 270961499, 2840715971, 1503289366, 1503289352, 270961513, 270961510, 2840715959, 2840715953, 270961508, 270961506, 270961502, 270961501, 1302116935, 1302116954, 1302116955, 2840715872, 1302116963, 1302116951, 1302116946, 1302116927, 2840714798, 1302116953, 2840715633, 2840715635, 1302116929, 1213574456, 1302116941, 1302116932, 303786028, 303786024, 2840715871, 2840715881, 2840715883, 2840715891, 2840715892, 2840715909, 2840715906, 2840715935, 2840715934, 303785997, 303785996, 2840715952, 303786054, 303786052, 303786051, 2840715933, 303786046, 2840715869, 2840715867, 2840715865, 303786043, 2840715864, 303786036, 303786033, 2838303238, 1503289349], "tags": {"addr:city": "Berlin", "addr:country": "DE", "addr:housenumber": "61", "addr:postcode": "13347", "addr:street": "Reinickendorfer Stra\u00dfe", "addr:suburb": "Wedding", "amenity": "hospital", "healthcare": "hospital", "healthcare:speciality": "geriatrics", "name": "Evangelisches Geriatriezentrum Berlin", "operator": "Johannesstift Diakonie", "short_name": "EGZB", "website": "http://www.egzb.de/", "wheelchair": "limited"}}, {"type": "way", "id": 138144499, "nodes": [1514443435, 1514443420, 6331630371, 6331630372, 6331630373, 6331630374, 1514443421, 6331630375, 6331630376, 1514443422, 1514443423, 6331630380, 6331630379, 6331630378, 6331630377, 6331630381, 1514443468, 1514443465, 1514443435], "tags": {"addr:city": "Berlin", "addr:country": "DE", "addr:housenumber": "21", "addr:postcode": "12351", "addr:street": "Juchaczweg", "addr:suburb": "Buckow", "amenity": "hospital", "emergency": "no", "healthcare": "hospital", "name": "Ida-Wolff-Krankenhaus", "wheelchair": "yes"}}, {"type": "way", "id": 138150297, "nodes": [1514443429, 7428410604, 7876190714, 1514443468, 1514443465, 1514443435, 1514443457, 5381467211, 1514443469, 1514382372, 1514382550, 1514382562, 704511732, 704511697, 1514382597, 1514382599, 1514382596, 1514382598, 1514382593, 1514382582, 1514382580, 1514382566, 1514382561, 1514382535, 1514382342, 1514382338, 1514382334, 1514382321, 1514443429], "tags": {"addr:city": "Berlin", "addr:country": "DE", "addr:housenumber": "48", "addr:postcode": "12351", "addr:street": "Rudower Stra\u00dfe", "addr:suburb": "Buckow", "amenity": "hospital", "emergency": "yes", "healthcare": "hospital", "healthcare:speciality": "obstetrics;intensive;psychiatry;ophthalmology;orthopaedics;gynaecology;paediatrics;surgery;emergency;radiology;internal;anaesthesiology;dermatology;ear_nose_throat;neurology;nuclear_medicine;palliative_medicine;pathology;haematology;urology", "name": "Vivantes Klinikum - Neuk\u00f6lln", "operator:type": "public", "website": "https://www.vivantes.de/knk/", "wikidata": "Q2528989"}}, {"type": "way", "id": 138215763, "nodes": [1515167729, 1515167724, 5727115591, 5727115592, 5727115593, 5727115752, 5727115751, 5727115750, 5727115749, 5727115748, 5727115747, 1515167726, 5727115746, 1515167731, 5727115744, 1515167729], "tags": {"addr:city": "Berlin", "addr:country": "DE", "addr:housenumber": "25-39", "addr:postcode": "14055", "addr:street": "Dickensweg", "addr:suburb": "Westend", "amenity": "hospital", "contact:email": "info@paulinenkrankenhaus.de", "contact:fax": "+49 (30) 30008-220", "contact:phone": "+49 (30) 30008-0", "contact:website": "http://www.paulinenkrankenhaus.de/", "healthcare": "hospital", "name": "Paulinen Krankenhaus", "operator": "Paulinenhaus Krankenanstalt e.V.", "phone": "+49 30 300080", "website": "https://www.paulinenkrankenhaus.de/", "wheelchair": "limited", "wikidata": "Q29793946"}}, {"type": "way", "id": 158262343, "nodes": [1704977672, 1936807120, 1936807137, 1403971104, 1403971128, 281498393, 1704977688, 281498396, 281498397, 5115646270, 281498398, 4747205227, 5252398993, 1704977655, 5258016038, 5258016035, 5258016036, 5363815820, 5363816321, 5363815812, 5363815813, 5363815814, 5363815815, 5363815816, 5363815817, 5363815818, 5363815819, 6547947620, 6547945157, 6547945156, 6547945155, 1704977627, 1704792961, 6547945151, 6547945149, 1704977644, 1704977649, 1704977651, 1704977667, 1704977672], "tags": {"addr:city": "Berlin", "addr:country": "DE", "addr:housenumber": "7", "addr:postcode": "12683", "addr:street": "Warener Stra\u00dfe", "addr:suburb": "Biesdorf", "amenity": "hospital", "capacity:beds": "550", "contact:email": "service@ukb.de", "contact:phone": "+49 30 56810", "contact:website": "http://www.ukb.de/", "emergency": "yes", "health_facility:type": "hospital", "healthcare": "hospital", "medical_system:western": "yes", "name": "Unfallkrankenhaus Berlin", "opening_hours": "24/7", "operator": "Verein f\u00fcr Berufsgenossenschaftliche Heilbehandlung Berlin e.V.", "staff_count:nurse": "399", "staff_count:physician": "223", "toilets:wheelchair": "yes", "wheelchair": "yes", "wikidata": "Q2493169", "wikipedia": "de:Unfallkrankenhaus Berlin"}}, {"type": "way", "id": 160806223, "nodes": [1642849744, 5818335952, 1642849740, 2294464051, 2294464049, 1642849765, 6338108312, 6458767261, 6458767263, 1684036783, 5818298760, 1642849749, 3883251233, 3883251187, 3883251181, 3883251172, 3883251126, 5818298765, 5818298764, 5818298761, 1535678115, 1100615184, 3095509132, 5818341300, 297810468, 1535678133, 297810210, 297810427, 297810212, 1642849726, 2809644413, 1642849744], "tags": {"amenity": "hospital", "beds": "434", "emergency": "yes", "healthcare": "hospital", "healthcare:speciality": "emergency;orthopaedics;gynaecology;internal;intensive;psychiatry;cardiology;surgery;geriatrics", "name": "Vivantes Klinikum Kaulsdorf", "operator": "Vivantes", "operator:type": "public", "website": "https://www.vivantes.de/khd", "wheelchair": "yes", "wikidata": "Q2528984"}}, {"type": "way", "id": 168967363, "nodes": [3904557230, 3904557228, 3904557231, 5212888518, 5212889125, 3904557223, 3904557222, 3904557221, 3904557229, 3904557230], "tags": {"addr:city": "Berlin", "addr:country": "DE", "addr:housenumber": "15", "addr:postcode": "12101", "addr:street": "W\u00fcsthoffstra\u00dfe", "addr:suburb": "Tempelhof", "amenity": "hospital", "denomination": "roman_catholic", "healthcare": "hospital", "name": "St. Joseph Krankenhaus", "name:en": "St. Joseph Hospital", "name:nl": "St. Joseph Ziekenhuis", "operator:type": "religious", "religion": "christian", "toilets:wheelchair": "yes", "website": "https://www.sjk.de/", "wheelchair": "yes", "wikidata": "Q50358759"}}, {"type": "way", "id": 188899872, "nodes": [1995288677, 1995288678, 5730628948, 5730628946, 1995288679, 1125025634, 1125025493, 1125025565, 1125025518, 5164799878, 1125025550, 1995288685, 1995288686, 1995288687, 1995288688, 1995288689, 1995288690, 1995288691, 2967211134, 7671131345, 7671131356, 1995288692, 1995288693, 1995288694, 1995288677], "tags": {"addr:city": "Berlin", "addr:country": "DE", "addr:housenumber": "50", "addr:postcode": "13125", "addr:street": "Schwanebecker Chaussee", "amenity": "hospital", "emergency": "yes", "healthcare": "hospital", "name": "HELIOS Klinikum Berlin Buch", "phone": "+49 30 94010", "toilets:wheelchair": "yes", "website": "http://www.helios-kliniken.de/klinik/berlin-buch.html", "wheelchair": "yes", "wikidata": "Q1602557"}}, {"type": "way", "id": 210727521, "nodes": [3350300898, 3350300899, 7382754567, 3350300902, 3350300900, 3350300903, 7167400027, 3350298292, 3350298278, 3350298274, 7167400032, 3350298273, 3350298272, 3350298268, 3350298280, 3350298277, 3350298283, 3350298290, 3350298287, 3350300896, 3350300897, 3350300898], "tags": {"addr:city": "Berlin", "addr:housename": "Ida-Wolff-Geriatriezentrum Neuk\u00f6lln", "addr:housenumber": "21", "addr:street": "Juchaczweg", "amenity": "hospital", "building": "hospital", "building:levels": "5", "emergency": "no", "healthcare": "hospital", "healthcare:speciality": "geriatrics", "internet_access": "no", "name": "Haus II", "operator:type": "public", "ref": "II", "roof:shape": "flat", "short_name": "IWK", "wheelchair": "yes"}}, {"type": "way", "id": 229099728, "nodes": [3079819270, 3079819269, 2377342501, 2377342504, 2377342505, 2377342510, 2377342513, 2377342516, 2377342520, 528610452, 528610453, 528610472, 3079821661, 528610493, 3079821662, 3079820861, 528610549, 528610438, 1504040734, 3079819272, 1504040733, 3079819270], "tags": {"amenity": "hospital", "emergency": "no", "healthcare": "hospital", "name": "Friedrich von Bodelschwingh-Klinik", "note": "Klinik f\u00fcr Psychiatrie und Psychotherapie"}}, {"type": "way", "id": 266782475, "nodes": [8521486446, 8521486445, 2722953778, 2722953776, 8521584069, 2722953768, 8521584075, 8521584072, 2722953773, 2722953771, 8521584080, 8521486446], "tags": {"addr:city": "Berlin", "addr:country": "DE", "addr:housenumber": "1", "addr:postcode": "14055", "addr:street": "Pillkaller Allee", "addr:suburb": "Westend", "amenity": "hospital", "contact:email": "verwaltung@malteser-krankenhaus-berlin.de", "contact:fax": "+49 30 30001437", "contact:phone": "+49 30 300010", "contact:website": "https://malteser-krankenhaus-berlin.de/", "name": "Malteser-Krankenhaus", "operator": "Malteser-Werk Berlin e.V.", "operator:type": "religious", "religion": "christian", "wheelchair": "yes"}}, {"type": "way", "id": 305989452, "nodes": [5202447804, 3107279703, 5202447806, 5202447805, 5202447809, 5202447808, 5202447807, 3107279702, 5202447625, 5202447810, 5202447811, 3107279701, 3107279698, 3107279700, 5202447738, 2367565103, 3730901744, 2367565082, 3730901746, 2367565019, 3730913209, 2367565049, 2367565095, 8171739948, 5202447670, 5202447666, 3107279697, 1282183014, 5202447726, 3107279699, 1282183038, 1282183009, 3107279705, 5202447803, 3107279707, 3107279708, 5202451066, 3107279706, 5202447804], "tags": {"addr:city": "Berlin", "addr:country": "DE", "addr:housenumber": "1", "addr:postcode": "10967", "addr:street": "Dieffenbachstra\u00dfe", "addr:suburb": "Kreuzberg", "amenity": "hospital", "contact:phone": "+49 30 130210", "contact:website": "http://www.vivantes.de/kau", "emergency": "yes", "healthcare": "hospital", "name": "Vivantes Klinikum am Urban", "reg_name": "Urban-Krankenhaus", "start_date": "1887", "wheelchair": "yes", "wikidata": "Q1297273", "wikipedia": "de:Klinikum Am Urban"}}, {"type": "way", "id": 311366537, "nodes": [5834399384, 3167444697, 3167444710, 3167444723, 3167444727, 3170032537, 3167444714, 3167444705, 3167444690, 3167444674, 5834399385, 3167444657, 3170032351, 3167444669, 5834399384], "tags": {"addr:city": "Berlin", "addr:housenumber": "9733", "addr:postcode": "21804", "addr:street": "Healthway Drive", "amenity": "hospital", "emergency": "yes", "gnis:feature_id": "2094855", "name": "Atlantic General Hospital", "phone": "+1 410 641 1100", "website": "https://www.atlanticgeneral.org/", "wikidata": "Q4816442", "wikipedia": "en:Atlantic General Hospital"}}, {"type": "way", "id": 326445437, "nodes": [29710595, 29710783, 3330884127, 3330918351, 3330884122, 3330884104, 3330884098, 3330884096, 3330884097, 3330879690, 3330879679, 3330879680, 3330879691, 3330879692, 3330884094, 3330884095, 1543127137, 8596141911, 1543127143, 716812810, 29710595], "tags": {"addr:city": "Berlin", "addr:country": "DE", "addr:housenumber": "70", "addr:postcode": "13403", "addr:street": "Olbendorfer Weg", "addr:suburb": "Reinickendorf", "amenity": "hospital", "healthcare": "hospital", "name": "Krankenhaus des Ma\u00dfregelvollzugs Berlin (KMV)", "operator": "Land Berlin"}}, {"type": "way", "id": 326448280, "nodes": [3330918350, 3330918349, 3330918348, 3330918347, 3330918339, 3330918336, 3330918337, 3330918338, 3330918343, 3330918344, 3330918346, 3330918345, 3330918341, 3330918342, 3330918340, 716812817, 3330918335, 3330918333, 3330918332, 3330918331, 29710785, 552292936, 331316482, 29710792, 29710784, 7777761973, 3330884127, 3330918351, 3330918350], "tags": {"addr:city": "Berlin", "addr:country": "DE", "addr:housenumber": "285", "addr:postcode": "13437", "addr:street": "Oranienburger Stra\u00dfe", "addr:suburb": "Wittenau", "amenity": "hospital", "healthcare": "hospital", "name": "Vivantes Humboldt-Klinikum - Standort Oranienburger Stra\u00dfe", "operator": "Vivantes", "phone": "+4930 130120", "toilets:wheelchair": "yes", "wheelchair": "limited"}}, {"type": "way", "id": 378933899, "nodes": [3822937535, 5431576364, 3822937537, 3822937536, 3822937540, 3822937538, 3822937541, 3822937539, 3822937542, 285963041, 281045267, 281045268, 2927098416, 2927089829, 3822937535], "tags": {"amenity": "hospital", "healthcare": "hospital", "name": "Park Klinik Wei\u00dfensee", "wheelchair": "yes", "wikidata": "Q1689390", "wikipedia": "de:Park-Klinik Wei\u00dfensee"}}, {"type": "way", "id": 380400580, "nodes": [3837364012, 5399024318, 5399024317, 5399024316, 3837364018, 3837364017, 3837364009, 3837364011, 3837364007, 5399017658, 5399017655, 5399017653, 3837364008, 3837364010, 3837364012], "tags": {"amenity": "hospital", "healthcare": "hospital", "name": "Evangelisches Krankenhaus Hubertus", "operator": "Johannesstift Diakonie", "website": "https://www.pgdiakonie.de/evangelisches-krankenhaus-hubertus/", "wheelchair": "yes"}}, {"type": "way", "id": 391245035, "nodes": [3944546857, 8069626305, 3944546895, 3942971848, 3942972058, 3944546934, 3944546699, 3942972157, 3942972159, 3942972163, 3944547001, 3942972352, 3942972376, 3944546782, 3944547025, 3944546971, 3944546712, 3942838915, 3942838904, 3944546696, 3944546945, 8069626298, 8069626299, 3944546857], "tags": {"amenity": "hospital", "healthcare": "hospital", "name": "Lazarus-Kranken- und Diakonissenhaus"}}, {"type": "way", "id": 393510169, "nodes": [1134297627, 3882645090, 3882645089, 3882645088, 3967041007, 315903405, 8505262343, 8505262362, 8505262346, 8505262351, 315903406, 7006589399, 3967041010, 7006589403, 7006589407, 7006589404, 6271934907, 3967041011, 8274212886, 6271935413, 6271934915, 8274212885, 7006589408, 3967041013, 7006567953, 7006567964, 3967041012, 3967041018, 7006567875, 3967041019, 3967041020, 3967041021, 3967041022, 3967041023, 7006567860, 3967041024, 3967041025, 3967041026, 1134297627], "tags": {"addr:city": "Berlin", "addr:country": "DE", "addr:housenumber": "6", "addr:postcode": "13585", "addr:street": "Neue Bergstra\u00dfe", "addr:suburb": "Spandau", "amenity": "hospital", "contact:phone": "+49 30 130130", "contact:phone:emergency": "+49 30 130132070", "contact:website": "http://www.vivantes.de/ksp", "healthcare": "hospital", "name": "Vivantes Klinikum Spandau", "wheelchair": "yes", "wikidata": "Q62269171"}}, {"type": "way", "id": 442949421, "nodes": [4405980551, 4405980552, 4405980557, 4405980559, 4405980562, 4405980564, 4405980563, 4405980566, 4405980565, 4405980553, 4405980550, 4405980549, 4405980548, 4405980545, 4405980543, 4405980544, 4405980547, 356556398, 5590557871, 5590557872, 4405980551], "tags": {"addr:city": "Berlin", "addr:housenumber": "130", "addr:postcode": "05602", "addr:street": "Fisher Road", "amenity": "hospital", "beds": "122", "emergency": "yes", "gnis:feature_id": "1919018", "healthcare": "hospital", "name": "Central Vermont Medical Center", "old_name": "Central Vermont Hospital", "opening_hours": "24/7", "operator": "University of Vermont Health Network", "phone": "+1 802 371 4100", "website": "https://www.cvmc.org/", "wikidata": "Q5061990", "wikipedia": "en:Central Vermont Medical Center"}}, {"type": "way", "id": 443460687, "nodes": [4410453376, 6468437371, 4410453378, 6468437335, 6468437334, 4410453377, 6468437333, 6468437332, 6468437331, 6468437330, 4410453375, 4410453367, 6468437329, 6468437328, 6468437327, 6468437326, 4410453366, 6468436934, 6468437325, 4410453365, 6468436939, 4410453368, 6468437336, 6468437337, 4410453373, 4410453376], "tags": {"addr:city": "Berlin", "addr:housenumber": "59", "addr:postcode": "03570", "addr:street": "Page Hill Road", "amenity": "hospital", "emergency": "yes", "healthcare": "hospital", "name": "Androscoggin Valley Hospital", "phone": "+1 603 752 2200", "website": "http://www.avhnh.org/", "wikidata": "Q64773833"}}, {"type": "way", "id": 484953108, "nodes": [2589847196, 4776999985, 4776999984, 8766281641, 4776999983, 4776999982, 4776999981, 4776999980, 4776999979, 4776999978, 4776999977, 4776999976, 357731748, 4776999975, 4776999974, 4776999973, 4776999972, 4776999971, 4776999970, 4776999969, 4776999968, 486778924, 2589847193, 486778922, 2589847194, 2589847196], "tags": {"addr:city": "Berlin", "addr:housenumber": "100", "addr:postcode": "08009", "addr:street": "Townsend Avenue", "amenity": "hospital", "emergency": "yes", "gnis:feature_id": "881710", "healthcare": "hospital", "name": "Virtua Health & Wellness Center - Berlin", "old_name": "West Jersey Hospital", "opening_hours": "24/7", "operator": "Virtua", "phone": "+1 856 322 3000", "website": "https://www.virtua.org/locations/health-wellness-center-berlin"}}, {"type": "way", "id": 510319574, "nodes": [4993625669, 5380965679, 324238004, 4993625668, 4993625667, 5380965675, 4993625666, 5380965676, 4993625665, 5380965677, 5380965678, 4993625664, 4993625663, 4993625662, 4993625669], "tags": {"addr:city": "Berlin", "addr:country": "DE", "addr:housenumber": "63", "addr:postcode": "14109", "addr:street": "K\u00f6nigstra\u00dfe", "addr:suburb": "Wannsee", "alt_name": "Immanuel-Krankenhaus Rheumaklinik Berlin-Wannsee und Zentrum f\u00fcr Naturheilkunde", "amenity": "hospital", "contact:email": "berlin@immanuel.de", "contact:fax": "+49 30 80505288", "contact:phone": "+49 30 805050", "contact:website": "http://www.immanuel.de/einrichtungen/berlin-wannsee", "healthcare": "hospital", "internet_access": "wlan", "internet_access:fee": "no", "internet_access:password": "IAD-PUBLIC", "internet_access:ssid": "iad-public", "member_of": "Immanuel Diakonie", "name": "Immanuel Krankenhaus Berlin", "wheelchair": "yes", "wikidata": "Q30267075"}}, {"type": "way", "id": 543927798, "nodes": [5258016038, 5258016037, 5258016036, 5258016035, 5258016038], "tags": {"amenity": "hospital"}}, {"type": "way", "id": 550182745, "nodes": [5314160457, 5314160458, 5314160459, 5314160460, 5314160461, 5314160462, 5314160463, 5314160464, 5314160465, 5314160466, 5314160457], "tags": {"amenity": "hospital", "building": "hospital", "healthcare": "hospital", "healthcare:speciality": "cardiology", "name": "Peninsula Cardiology Associates, P.A."}}, {"type": "way", "id": 567540939, "nodes": [1864407556, 5462656215, 4403339613, 553084998, 5462653533, 5462653532, 5462653531, 5462653523, 284442525, 564251802, 284442546, 5462653527, 5462653534, 5462653526, 5462653525, 284442548, 284442517, 4354641617, 5462653528, 5462653529, 284442521, 5462653530, 284442522, 1864407556], "tags": {"amenity": "hospital", "emergency": "yes", "healthcare": "hospital", "name": "Alexianer St. Joseph Krankenhaus Berlin-Wei\u00dfensee", "operator": "Alexianer St. Joseph Berlin-Wei\u00dfensee GmbH", "wheelchair": "yes"}}, {"type": "way", "id": 583306346, "nodes": [539004264, 303436996, 1375229166, 1203692708, 8098189879, 2776438006, 3342715086, 1213904037, 3342715026, 3342715018, 1213904051, 3342713391, 1213904046, 2776430909, 3342713385, 8296993392, 2776430907, 3342713380, 5528443729, 2734608154, 5528443773, 2734608162, 2776438009, 2776438001, 2776438005, 2776438002, 3342715252, 2776437998, 1353880244, 539004992, 1353880252, 539004994, 539004995, 6476525721, 1353880254, 539004996, 539004997, 3342715684, 6177993578, 4556857264, 4556857263, 4556857266, 4556857269, 6177993577, 6183497629, 7956313168, 6177993576, 6177993575, 688232163, 538980696, 8786888391, 6177993574, 8786888390, 4556857277, 4556857279, 6163449211, 1244674591, 4476029914, 5576630903, 6189469062, 5534321653, 1203301034, 1203301054, 4778669950, 520647632, 539004264], "tags": {"amenity": "hospital", "emergency": "yes", "healthcare": "hospital", "name": "Charit\u00e9 Universit\u00e4tsmedizin Berlin", "name:bg": "\u0428\u0430\u0440\u0438\u0442\u0435", "name:eo": "Charit\u00e9", "name:es": "Charit\u00e9", "name:fi": "Charit\u00e9", "name:fr": "Charit\u00e9", "name:hy": "\u0547\u0561\u0580\u056b\u057f\u0565", "name:it": "Charit\u00e9", "name:nl": "Charit\u00e9", "name:pl": "Charit\u00e9", "name:pt": "Charit\u00e9", "name:ru": "\u0428\u0430\u0440\u0438\u0442\u0435", "name:uk": "\u0428\u0430\u0440\u0456\u0442\u0435", "name:zh": "\u590f\u91cc\u7279", "website": "https://www.charite.de/", "wheelchair": "yes", "wikidata": "Q162684", "wikipedia": "de:Charit\u00e9"}}, {"type": "way", "id": 584926208, "nodes": [5590557868, 5590557867, 5590557866, 5590557865, 5590557864, 5590557863, 5590557862, 5590557868], "tags": {"addr:city": "Berlin", "addr:housenumber": "350", "addr:postcode": "05602", "addr:street": "Fisher Road", "amenity": "hospital", "beds": "25", "emergency": "no", "healthcare": "hospital", "healthcare:speciality": "psychiatry", "name": "Vermont Psychiatric Care Hospital", "operator": "Vermont Department of Mental Health", "phone": "+1 802 828 3300", "website": "https://mentalhealth.vermont.gov/intervention-and-recovery/vermont-psychiatric-care-hospital"}}, {"type": "way", "id": 640582918, "nodes": [6034519612, 6096424319, 6096424318, 6034519610, 6034519609, 6034519608, 6034519607, 6034519606, 6034519605, 6034519612], "tags": {"addr:city": "Berlin", "addr:country": "DE", "addr:housenumber": "3-5", "addr:postcode": "12207", "addr:street": "Promenadenstra\u00dfe", "addr:suburb": "Lichterfelde", "amenity": "hospital", "emergency": "yes", "healthcare": "hospital", "name": "Krankenhaus Bethel", "phone": "+49 30 77910", "toilets:wheelchair": "yes", "website": "https://www.bethelnet.de/kliniken/krankenhaus-bethel-berlin.html", "wheelchair": "yes"}}, {"type": "way", "id": 660951731, "nodes": [6066477461, 2322034564, 6188078552, 2322034582, 4934939930, 1582641591, 5484542846, 2318206341, 1582641590, 2321716225, 2318206340, 2321716221, 270361348, 4548431469, 2321716215, 270361379, 1582641562, 6188078551, 6066477452, 6066477461], "tags": {"addr:city": "Berlin", "addr:country": "DE", "addr:housenumber": "123-143", "addr:postcode": "12249", "addr:street": "Gallwitzallee", "addr:suburb": "Lankwitz", "amenity": "hospital", "emergency": "yes", "name": "Sankt-Marien-Krankenhaus", "phone": "+49 30 76783-0", "website": "http://www.marienkrankenhaus-berlin.de/"}}, {"type": "way", "id": 670481735, "nodes": [6278753944, 282320347, 282320343, 6715828312, 6715828313, 6278753945, 6278753944], "tags": {"addr:city": "Berlin", "addr:country": "DE", "addr:housenumber": "26", "addr:postcode": "12683", "addr:street": "Blumberger Damm", "addr:suburb": "Biesdorf", "amenity": "hospital", "name": "Arona Klinik f\u00fcr Altersmedizin", "website": "https://arona-kliniken.de/"}}, {"type": "way", "id": 700483283, "nodes": [2747623805, 3629224042, 29270279, 3627805335, 5574729951, 29270287, 364844815, 197357556, 5574729952, 313142482, 364844809, 307488111, 262717876, 2747592219, 2747592221, 2747592246, 2747592244, 2747592258, 324331885, 5574729957, 324364000, 307488113, 5574729956, 5574729955, 2747623847, 2747623864, 321854986, 670669996, 29270285, 3700221275, 29270284, 3359264193, 5574729947, 324348848, 2747592307, 2747592292, 310812050, 5574729958, 262717963, 262717958, 3359264086, 8561115216, 8561115214, 3622681533, 1851046051, 1851046049, 3622681534, 3622681529, 3622681531, 3622681530, 3622681532, 320094260, 708961092, 310807317, 310807073, 310807074, 3620978014, 3620978013, 3620978009, 1851046044, 3478511812, 3629224568, 2747623807, 3359264083, 2747623805], "tags": {"addr:city": "Berlin", "addr:country": "DE", "addr:housenumber": "49", "addr:postcode": "10249", "addr:street": "Landsberger Allee", "addr:suburb": "Friedrichshain", "amenity": "hospital", "beds": "964", "contact:website": "https://www.vivantes.de/fuer-sie-vor-ort/klinikum-im-friedrichshain-landsberger-allee/", "emergency": "yes", "healthcare": "hospital", "name": "Klinikum im Friedrichshain", "operator": "Vivantes", "wikidata": "Q1774663", "wikipedia": "de:Klinikum im Friedrichshain"}}, {"type": "relation", "id": 7715945, "members": [{"type": "way", "ref": 71403814, "role": "outer"}, {"type": "way", "ref": 539039034, "role": "inner"}], "tags": {"addr:city": "Berlin", "addr:country": "DE", "addr:housenumber": "15-19", "addr:postcode": "10787", "addr:street": "Budapester Stra\u00dfe", "addr:suburb": "Tiergarten", "amenity": "hospital", "building": "yes", "contact:phone": "+493026380", "contact:website": "http://www.franziskus-berlin.de", "emergency": "yes", "healthcare": "hospital", "name": "Franziskus-Krankenhaus Berlin", "operator": "Thuiner Franziskanerinnen", "type": "multipolygon", "wheelchair": "yes", "wikidata": "Q50358758"}}, {"type": "relation", "id": 8667439, "members": [{"type": "way", "ref": 624100503, "role": "outer"}, {"type": "way", "ref": 624100502, "role": "inner"}], "tags": {"addr:city": "Berlin", "addr:country": "DE", "addr:housenumber": "26/51", "addr:postcode": "13587", "addr:street": "Sch\u00f6nwalder Allee", "addr:suburb": "Hakenfelde", "amenity": "hospital", "building": "yes", "emergency": "no", "healthcare": "hospital", "name": "Wichernkrankenhaus", "operator": "Johannesstift Diakonie", "type": "multipolygon", "wheelchair": "yes"}}, {"type": "area", "id": 2502645702, "tags": {"building": "residential", "building:flats": "1", "building:ruian:type": "3", "name": "Berlin", "ref:ruian:building": "23347147", "source": "cuzk:ruian"}}, {"type": "area", "id": 2551721400, "tags": {"building": "yes", "building:levels": "4", "name": "Berlin", "tourism": "hotel"}}, {"type": "area", "id": 2634838222, "tags": {"building": "university", "building:levels": "2", "name": "Berlin"}}, {"type": "area", "id": 2668687348, "tags": {"addr:housenumber": "15", "addr:street": "Dame Street", "alcohol": "yes", "amenity": "cafe", "name": "Berlin", "old_name": "King Charlie's"}}, {"type": "area", "id": 2766095709, "tags": {"building": "yes", "name": "Berlin"}}, {"type": "area", "id": 2789053526, "tags": {"building": "yes", "name": "Berlin", "source": "cadastre-dgi-fr source : Direction G\u00e9n\u00e9rale des Finances Publiques - Cadastre. Mise \u00e0 jour : 2016"}}, {"type": "area", "id": 2799530417, "tags": {"name": "Berlin", "place": "isolated_dwelling"}}, {"type": "area", "id": 2802951130, "tags": {"building": "yes", "name": "Berlin", "shop": "yes"}}, {"type": "area", "id": 2803158929, "tags": {"addr:city": "Villa Nueva", "addr:street": "5a Avenida", "building": "yes", "name": "Berlin", "shop": "yes"}}, {"type": "area", "id": 2826648190, "tags": {"addr:city": "Quito", "addr:street": "Mariano Echeverria", "building": "commercial", "building:levels": "1", "name": "Berlin", "source": "Reconocimiento cartogr\u00e1fico de campo 2016 por KG."}}, {"type": "area", "id": 2826681623, "tags": {"admin_level": "9", "alt_name": "Berlin", "boundary": "administrative", "comuna": "Villavicencio", "editor": "opengislab@openmailbox.org", "landuse": "residential", "name": "Berlin", "source": "DIVIPOLA de la Secretaria de planeaci\u00f3n Alcaldia de Pereira, POT2011, POT2015"}}, {"type": "area", "id": 2831297422, "tags": {"building": "hotel", "building:levels": "5", "internet_access": "wlan", "name": "Berlin", "smoking": "no", "tourism": "hotel"}}, {"type": "area", "id": 2871857969, "tags": {"addr:street": "Avenida Berl\u00edn", "building": "yes", "name": "Berlin", "shop": "bakery", "source": "Reconocimiento terrestre 2016 por Kaart."}}, {"type": "area", "id": 2921319958, "tags": {"building": "dormitory", "building:levels": "6", "name": "Berlin", "roof:levels": "0", "start_date": "2017"}}, {"type": "area", "id": 3076810888, "tags": {"landuse": "residential", "name": "Berlin"}}, {"type": "area", "id": 3162624832, "tags": {"building": "house", "name": "Berlin"}}, {"type": "area", "id": 3163949817, "tags": {"building": "farm", "name": "Berlin"}}, {"type": "area", "id": 3182142304, "tags": {"alt_name": "Barrio Berlin", "name": "Berlin", "place": "neighbourhood", "source": "http://gps.sisfo.com"}}, {"type": "area", "id": 3600062422, "tags": {"ISO3166-2": "DE-BE", "TMC:cid_58:tabcd_1:Class": "Area", "TMC:cid_58:tabcd_1:LCLversion": "12.0", "TMC:cid_58:tabcd_1:LocationCode": "266", "admin_level": "4", "alt_name:vi": "B\u00e9c-lin", "boundary": "administrative", "contact:facebook": "http://www.facebook.com/Berlin", "contact:website": "http://www.berlin.de", "de:amtlicher_gemeindeschluessel": "11000000", "de:place": "city", "de:place:note": "Kreisfreie Stadt", "de:regionalschluessel": "110000000000", "geographical_region": "Barnim;Berliner Urstromtal;Teltow;Nauener Platte", "license_plate_code": "B", "name": "Berlin", "name:af": "Berlyn", "name:als": "Berlin", "name:am": "\u1260\u122d\u120a\u1295", "name:an": "Berl\u00edn", "name:ang": "Berlin", "name:ar": "\u0628\u0631\u0644\u064a\u0646", "name:arc": "\u0712\u072a\u0720\u071d\u0722", "name:ast": "Berl\u00edn", "name:az": "Berlin", "name:ba": "\u0411\u0435\u0440\u043b\u0438\u043d", "name:bar": "Berlin", "name:bat-smg": "Berl\u012bns", "name:be": "\u0411\u0435\u0440\u043b\u0456\u043d", "name:be-tarask": "\u0411\u044d\u0440\u043b\u0456\u043d", "name:bg": "\u0411\u0435\u0440\u043b\u0438\u043d", "name:bi": "Berlin", "name:bn": "\u09ac\u09be\u09b0\u09cd\u09b2\u09bf\u09a8", "name:bo": "\u0f54\u0f7a\u0f0b\u0f63\u0f72\u0f44\u0f0b", "name:br": "Berlin", "name:bs": "Berlin", "name:ca": "Berl\u00edn", "name:cbk-zam": "Berl\u00edn", "name:crh": "Berlin", "name:cs": "Berl\u00edn", "name:csb": "Berl\u00ebno", "name:cu": "\u0411\u0435\u0440\u043b\u0438\u043d\u044a", "name:cv": "\u0411\u0435\u0440\u043b\u0438\u043d", "name:cy": "Berlin", "name:da": "Berlin", "name:de": "Berlin", "name:diq": "Berlin", "name:dsb": "Barli\u0144", "name:el": "\u0392\u03b5\u03c1\u03bf\u03bb\u03af\u03bd\u03bf", "name:en": "Berlin", "name:eo": "Berlino", "name:es": "Berl\u00edn", "name:et": "Berliin", "name:eu": "Berlin", "name:fa": "\u0628\u0631\u0644\u06cc\u0646", "name:fi": "Berliini", "name:fo": "Berlin", "name:fr": "Berlin", "name:frp": "B\u00e8rlin", "name:fur": "Berlin", "name:fy": "Berlyn", "name:ga": "Beirl\u00edn", "name:gd": "Berlin", "name:gl": "Berl\u00edn", "name:gn": "Berlin", "name:gv": "Berleen", "name:haw": "Pelelina", "name:he": "\u05d1\u05e8\u05dc\u05d9\u05df", "name:hi": "\u092c\u0930\u094d\u0932\u093f\u0928", "name:hr": "Berlin", "name:hsb": "Berlin", "name:ht": "B\u00e8len", "name:hu": "Berlin", "name:hy": "\u0532\u0565\u057c\u056c\u056b\u0576", "name:ia": "Berlin", "name:id": "Berlin", "name:ie": "Berlin", "name:ilo": "Berlin, Alemania", "name:io": "Berlin", "name:is": "Berl\u00edn", "name:it": "Berlino", "name:ja": "\u30d9\u30eb\u30ea\u30f3", "name:jbo": "berlin", "name:jv": "Berlin", "name:ka": "\u10d1\u10d4\u10e0\u10da\u10d8\u10dc\u10d8", "name:kab": "Berlin", "name:kk": "\u0411\u0435\u0440\u043b\u0438\u043d", "name:ko": "\ubca0\ub97c\ub9b0", "name:ksh": "B\u00e4lliin", "name:ku": "Berl\u00een", "name:kv": "\u0411\u0435\u0440\u043b\u0438\u043d", "name:kw": "Berlin", "name:la": "Berolinum", "name:lb": "Berlin", "name:lg": "Berlin", "name:li": "Berlien", "name:lij": "Berlin", "name:lmo": "Berlin", "name:ln": "Berlin", "name:lt": "Berlynas", "name:lv": "Berl\u012bne", "name:lzh": "\u67cf\u6797", "name:mg": "Berlin", "name:mk": "\u0411\u0435\u0440\u043b\u0438\u043d", "name:ml": "\u0d2c\u0d46\u0d30\u0d4d\u200d\u0d32\u0d3f\u0d28\u0d4d", "name:mn": "\u0411\u0435\u0440\u043b\u0438\u043d", "name:mr": "\u092c\u0930\u094d\u0932\u093f\u0928", "name:ms": "Berlin", "name:mt": "Berlin", "name:myv": "\u0411\u0435\u0440\u043b\u0438\u043d \u043e\u0448", "name:na": "Berlin", "name:nah": "Berlin", "name:nan": "Berlin", "name:nap": "Berlino", "name:nds": "Berlin", "name:nl": "Berlijn", "name:nn": "Berlin", "name:no": "Berlin", "name:nov": "Berlin", "name:nrm": "B\u00e8rl\u00een", "name:oc": "Berlin", "name:os": "\u0411\u0435\u0440\u043b\u0438\u043d", "name:pam": "Berlin", "name:pdc": "Berlin, Deitschland", "name:pl": "Berlin", "name:pms": "Berlin", "name:prefix:city": "Kreisfreie Stadt", "name:prefix:state": "Land", "name:pt": "Berlim", "name:qu": "Berlin", "name:rm": "Berlin", "name:rmy": "Berlin", "name:ro": "Berlin", "name:roa-rup": "Berlin", "name:roa-tara": "Berline", "name:ru": "\u0411\u0435\u0440\u043b\u0438\u043d", "name:sah": "\u0411\u0435\u0440\u043b\u0438\u043d", "name:sc": "Berlinu", "name:scn": "Birlinu", "name:sco": "Berlin", "name:se": "Berlin", "name:sh": "Berlin", "name:short": "BE", "name:sk": "Berl\u00edn", "name:sl": "Berlin", "name:so": "Berlin", "name:sq": "Berlini", "name:sr": "\u0411\u0435\u0440\u043b\u0438\u043d", "name:stq": "Berlin", "name:su": "Berliini", "name:sv": "Berlin", "name:sw": "Berlin", "name:szl": "Berlin", "name:ta": "\u0baa\u0bc6\u0bb0\u0bcd\u0bb2\u0bbf\u0ba9\u0bcd", "name:te": "\u0c2c\u0c46\u0c30\u0c4d\u0c32\u0c3f\u0c28\u0c4d", "name:tet": "Berl\u00edn", "name:tg": "\u0411\u0435\u0440\u043b\u0438\u043d", "name:th": "\u0e40\u0e1a\u0e2d\u0e23\u0e4c\u0e25\u0e34\u0e19", "name:tl": "Berlin", "name:tpi": "Berlin", "name:tr": "Berlin", "name:tt": "\u0411\u0435\u0440\u043b\u0438\u043d", "name:ty": "Berlin", "name:tzl": "Berlin", "name:uk": "\u0411\u0435\u0440\u043b\u0456\u043d", "name:ur": "\u0628\u0631\u0644\u0646", "name:uz": "Berlin", "name:vec": "Berlin", "name:vi": "Berlin", "name:vls": "Berlyn", "name:wo": "Berlin", "name:yi": "\u05d1\u05e2\u05e8\u05dc\u05d9\u05df", "name:yo": "Berlin", "name:yue": "\u67cf\u6797", "name:zh": "\u67cf\u6797", "name:zu": "Berlin", "official_name": "Stadtstaat Berlin", "official_status": "Land", "official_status:de": "Land", "official_status:en": "State", "official_status:ru": "\u0437\u0435\u043c\u043b\u044f", "old_name:vi": "B\u00e1 Linh", "place": "state", "population": "3440441", "ref:nuts": "DE3;DE30;DE300", "ref:nuts:1": "DE3", "ref:nuts:2": "DE30", "ref:nuts:3": "DE300", "source:population": "http://www.statistik-berlin-brandenburg.de/Publikationen/Stat_Berichte/2010/SB_A1-1_A2-4_q01-10_BE.pdf 2010-10-01", "state_code": "BE", "type": "boundary", "wikidata": "Q64", "wikipedia": "de:Berlin"}}, {"type": "area", "id": 3600119876, "tags": {"admin_level": "8", "border_type": "city", "boundary": "administrative", "is_in": "USA, Georgia", "is_in:country": "USA", "is_in:country_code": "US", "is_in:iso_3166_2": "US:GA", "is_in:state": "Georgia", "is_in:state_code": "GA", "name": "Berlin", "place": "city", "source": "TIGER/Line\u00ae 2008 Place Shapefiles (http://www.census.gov/geo/www/tiger/)", "tiger:CLASSFP": "C1", "tiger:CPI": "N", "tiger:FUNCSTAT": "A", "tiger:LSAD": "25", "tiger:MTFCC": "G4110", "tiger:NAME": "Berlin", "tiger:NAMELSAD": "Berlin city", "tiger:PCICBSA": "N", "tiger:PCINECTA": "N", "tiger:PLACEFP": "07304", "tiger:PLACENS": "02403860", "tiger:PLCIDFP": "1307304", "tiger:STATEFP": "13", "tiger:reviewed": "no", "type": "boundary", "wikidata": "Q2345711", "wikipedia": "en:Berlin, Georgia"}}, {"type": "area", "id": 3600126290, "tags": {"admin_level": "8", "border_type": "village", "boundary": "administrative", "is_in": "USA, Illinois", "is_in:country": "USA", "is_in:country_code": "US", "is_in:iso_3166_2": "US:IL", "is_in:state": "Illinois", "is_in:state_code": "IL", "name": "Berlin", "place": "village", "source": "TIGER/Line\u00ae 2008 Place Shapefiles (http://www.census.gov/geo/www/tiger/)", "tiger:CLASSFP": "C1", "tiger:CPI": "N", "tiger:FUNCSTAT": "A", "tiger:LSAD": "47", "tiger:MTFCC": "G4110", "tiger:NAME": "Berlin", "tiger:NAMELSAD": "Berlin village", "tiger:PCICBSA": "N", "tiger:PCINECTA": "N", "tiger:PLACEFP": "05443", "tiger:PLACENS": "02398103", "tiger:PLCIDFP": "1705443", "tiger:STATEFP": "17", "type": "boundary", "wikidata": "Q2504681", "wikipedia": "en:Berlin, Illinois"}}, {"type": "area", "id": 3600133689, "tags": {"admin_level": "8", "border_type": "town", "boundary": "administrative", "is_in:country": "USA", "is_in:country_code": "US", "is_in:iso_3166_2": "US:MD", "is_in:state": "Maryland", "is_in:state_code": "MD", "name": "Berlin", "place": "town", "source": "TIGER/Line\u00ae 2008 Place Shapefiles (http://www.census.gov/geo/www/tiger/)", "tiger:CLASSFP": "C1", "tiger:CPI": "N", "tiger:FUNCSTAT": "A", "tiger:LSAD": "43", "tiger:MTFCC": "G4110", "tiger:NAME": "Berlin", "tiger:NAMELSAD": "Berlin town", "tiger:PCICBSA": "N", "tiger:PCINECTA": "N", "tiger:PLACEFP": "06800", "tiger:PLACENS": "02390722", "tiger:PLCIDFP": "2406800", "tiger:STATEFP": "24", "type": "boundary", "wikidata": "Q614184", "wikipedia": "en:Berlin, Maryland"}}, {"type": "area", "id": 3600170184, "tags": {"admin_level": "8", "border_type": "city", "boundary": "administrative", "name": "Berlin", "place": "city", "source": "TIGER/Line\u00ae 2008 Place Shapefiles (http://www.census.gov/geo/www/tiger/)", "type": "boundary", "wikidata": "Q821244", "wikipedia": "en:Berlin, New Hampshire"}}, {"type": "area", "id": 3600170680, "tags": {"admin_level": "8", "boundary": "administrative", "is_in:country": "USA", "is_in:country_code": "US", "is_in:county": "Camden, NJ", "is_in:iso_3166_2": "US:NJ", "is_in:state": "New Jersey", "is_in:state_code": "NJ", "name": "Berlin", "source": "TIGER/Line\u00ae 2008 Place Shapefiles (http://www.census.gov/geo/www/tiger/)", "tiger:CLASSFP": "C5", "tiger:CPI": "N", "tiger:FUNCSTAT": "A", "tiger:LSAD": "21", "tiger:MTFCC": "G4110", "tiger:NAME": "Berlin", "tiger:NAMELSAD": "Berlin borough", "tiger:PCICBSA": "N", "tiger:PCINECTA": "N", "tiger:PLACEFP": "05440", "tiger:PLACENS": "00885158", "tiger:PLCIDFP": "3405440", "tiger:STATEFP": "34", "type": "boundary", "wikidata": "Q1086827", "wikipedia": "en:Berlin, New Jersey"}}, {"type": "area", "id": 3600181615, "tags": {"admin_level": "8", "border_type": "city", "boundary": "administrative", "is_in": "USA, North Dakota", "is_in:country": "USA", "is_in:country_code": "US", "is_in:iso_3166_2": "US:ND", "is_in:state": "North Dakota", "is_in:state_code": "ND", "name": "Berlin", "place": "city", "source": "TIGER/Line\u00ae 2008 Place Shapefiles (http://www.census.gov/geo/www/tiger/)", "tiger:CLASSFP": "C5", "tiger:CPI": "N", "tiger:FUNCSTAT": "A", "tiger:LSAD": "25", "tiger:MTFCC": "G4110", "tiger:NAME": "Berlin", "tiger:NAMELSAD": "Berlin city", "tiger:PCICBSA": "N", "tiger:PCINECTA": "N", "tiger:PLACEFP": "06300", "tiger:PLACENS": "01035929", "tiger:PLCIDFP": "3806300", "tiger:STATEFP": "38", "type": "boundary", "wikidata": "Q821229", "wikipedia": "en:Berlin, North Dakota"}}, {"type": "area", "id": 3600189091, "tags": {"admin_level": "8", "border_type": "borough", "boundary": "administrative", "is_in": "USA, Pennsylvania", "is_in:country": "USA", "is_in:country_code": "US", "is_in:iso_3166_2": "US:PA", "is_in:state": "Pennsylvania", "is_in:state_code": "PA", "name": "Berlin", "place": "borough", "source": "TIGER/Line\u00ae 2008 Place Shapefiles (http://www.census.gov/geo/www/tiger/)", "tiger:CLASSFP": "C5", "tiger:CPI": "N", "tiger:FUNCSTAT": "A", "tiger:LSAD": "21", "tiger:MTFCC": "G4110", "tiger:NAME": "Berlin", "tiger:NAMELSAD": "Berlin borough", "tiger:PCICBSA": "N", "tiger:PCINECTA": "N", "tiger:PLACEFP": "05776", "tiger:PLACENS": "01215582", "tiger:PLCIDFP": "4205776", "tiger:STATEFP": "42", "type": "boundary", "wikidata": "Q1130950", "wikipedia": "en:Berlin, Pennsylvania"}}, {"type": "area", "id": 3601844156, "tags": {"addr:county": "Worcester County", "admin_level": "8", "boundary": "administrative", "name": "Berlin", "place": "town", "type": "boundary", "wikidata": "Q524646", "wikipedia": "en:Berlin, Massachusetts"}}, {"type": "area", "id": 3603490159, "tags": {"addr:city": "Warszawa", "addr:city:simc": "0918123", "addr:housenumber": "14", "addr:postcode": "02-823", "addr:street": "Osma\u0144ska", "addr:street:sym_ul": "15329", "building": "yes", "name": "Berlin", "source:addr": "mapa.um.warszawa.pl", "type": "multipolygon"}}, {"type": "area", "id": 3607757029, "tags": {"admin_level": "9", "alt_name": "Berlin", "boundary": "administrative", "comuna": "Villavicencio", "editor": "opengislab@openmailbox.org", "landuse": "residential", "name": "Berlin", "type": "boundary"}}, {"type": "area", "id": 3608898132, "tags": {"admin_level": "8", "boundary": "administrative", "gnis:feature_id": "1462042", "name": "Berlin", "type": "boundary", "wikidata": "Q821245", "wikipedia": "en:Berlin, Vermont"}}, {"type": "area", "id": 3611042445, "tags": {"admin_level": "8", "border_type": "town", "boundary": "administrative", "name": "Berlin", "place": "town", "type": "boundary", "wikidata": "Q821199", "wikipedia": "en:Berlin, Connecticut"}}]}