{"version": 0.6, "generator": "Overpass API 0.7.56.9 76e5016d", "osm3s": {"timestamp_osm_base": "2021-06-29T08:52:11Z", "timestamp_areas_base": "2021-06-29T03:23:23Z", "copyright": "The data included in this document is from www.openstreetmap.org. The data is made available under ODbL."}, "elements": [{"type": "node", "id": 278540049, "lat": 52.5537197, "lon": 13.3595911, "tags": {"addr:city": "Berlin", "addr:country": "DE", "addr:housenumber": "64", "addr:postcode": "13347", "addr:street": "Seestra\u00dfe", "addr:suburb": "Wedding", "amenity": "university", "contact:phone": "+493045040", "name": "Beuth Hochschule f\u00fcr Technik Berlin - Forum Seestra\u00dfe", "operator": "Beuth Hochschule f\u00fcr Technik Berlin", "website": "https://www.beuth-hochschule.de", "wheelchair": "limited"}}, {"type": "node", "id": 516359399, "lat": 52.5116111, "lon": 13.3149908, "tags": {"addr:city": "Berlin", "addr:country": "DE", "addr:housenumber": "11-13", "addr:postcode": "10625", "addr:street": "Leibnizstra\u00dfe", "addr:suburb": "Charlottenburg", "amenity": "university", "name": "bbw Hochschule", "name:en": "The bbw University", "phone": "+49 30 319909530", "website": "https://www.bbw-hochschule.de/", "wheelchair": "yes", "wikidata": "Q812777"}}, {"type": "node", "id": 1425160484, "lat": 52.4609534, "lon": 13.2939396, "tags": {"addr:city": "Berlin", "addr:country": "DE", "addr:housenumber": "20", "addr:postcode": "14195", "addr:street": "Koserstra\u00dfe", "addr:suburb": "Dahlem", "alt_name": "Bauteil D", "amenity": "university", "name": "FB Veterin\u00e4rmedizin", "name:de": "FB Veterin\u00e4rmedizin", "name:en": "Department of Veterinary Medicine", "operator": "Freie Universit\u00e4t Berlin", "short_name": "Veterin\u00e4rmedizin", "short_name:en": "Veterinary Medicine"}}, {"type": "node", "id": 1425160485, "lat": 52.4616094, "lon": 13.2937859, "tags": {"addr:city": "Berlin", "addr:country": "DE", "addr:housenumber": "20", "addr:postcode": "14195", "addr:street": "Koserstra\u00dfe", "addr:suburb": "Dahlem", "alt_name": "Friedrich-Meinecke-Institut f\u00fcr Geschichtswissenschaften", "alt_name_1": "Bauteil A", "amenity": "university", "contact:website": "http://www.geschkult.fu-berlin.de/e/fmi/", "name": "FB Geschichts- und Kulturwissenschaften", "name:en": "Friedrich Meinecke Institute for Historical Research", "operator": "Freie Universit\u00e4t Berlin", "short_name": "Geschichte", "short_name:en": "History", "wheelchair": "limited"}}, {"type": "node", "id": 1425160486, "lat": 52.4612833, "lon": 13.2942022, "tags": {"addr:city": "Berlin", "addr:country": "DE", "addr:housenumber": "20", "addr:postcode": "14195", "addr:street": "Koserstra\u00dfe", "addr:suburb": "Dahlem", "alt_name": "Kunsthistorisches Institut", "alt_name_1": "Bauteil B", "amenity": "university", "contact:website": "http://www.gsta.spk-berlin.de/", "name": "FB Geschichts- und Kulturwissenschaften", "name:en": "Art History Department", "operator": "Freie Universit\u00e4t Berlin", "short_name": "Kunstgeschichte", "short_name:en": "Art History"}}, {"type": "node", "id": 1431752413, "lat": 52.4702459, "lon": 13.2891169, "tags": {"amenity": "university", "name": "FU Frankreich-Zentrum", "name:de": "FU Frankreich-Zentrum", "name:en": "FU Center for French Studies", "operator": "Freie Universit\u00e4t Berlin", "short_name:de": "Frankreich-Zentrum", "short_name:en": "French Studies"}}, {"type": "node", "id": 1431752415, "lat": 52.4703316, "lon": 13.2889954, "tags": {"amenity": "university", "name": "FU Italien-Zentrum", "name:de": "FU Italien-Zentrum", "name:en": "FU Center for Italian Studies", "operator": "Freie Universit\u00e4t Berlin", "short_name": "Italienzentrum", "short_name:en": "Italian Studies"}}, {"type": "node", "id": 1552071417, "lat": 52.5242273, "lon": 13.392283, "tags": {"addr:city": "Berlin", "addr:country": "DE", "addr:housenumber": "11", "addr:postcode": "10117", "addr:street": "Tucholskystra\u00dfe", "addr:suburb": "Mitte", "amenity": "university", "name": "Parit\u00e4tische Akademie Berlin gGmbH", "url": "http://www.akademie.org"}}, {"type": "node", "id": 1590332395, "lat": 52.5165709, "lon": 13.4035367, "tags": {"amenity": "university", "name": "Hochschule f\u00fcr Musik Hanns Eisler Berlin", "name:zh": "\u97f3\u6a02\u5927\u5b78", "website": "https://www.hfm-berlin.de/", "wikidata": "Q569460", "wikipedia": "de:Hochschule f\u00fcr Musik \u201eHanns Eisler\u201c Berlin"}}, {"type": "node", "id": 1701292971, "lat": 52.4938798, "lon": 13.4467241, "tags": {"addr:city": "Berlin", "addr:country": "DE", "addr:housenumber": "65", "addr:postcode": "12435", "addr:street": "Lohm\u00fchlenstra\u00dfe", "addr:suburb": "Alt-Treptow", "alt_name": "Code Berlin", "amenity": "university", "contact:email": "hello@code.berlin", "contact:phone": "+49 30 120 859 61", "contact:website": "https://code.berlin", "name": "Code University of Applied Sciences", "operator": "CODE Education GmbH", "wikidata": "Q40387612", "wikipedia": "de:CODE University of Applied Sciences"}}, {"type": "node", "id": 2175035189, "lat": 52.5060988, "lon": 13.3787343, "tags": {"addr:city": "Berlin", "addr:country": "DE", "addr:housenumber": "3-5", "addr:postcode": "10963", "addr:street": "Dessauer Stra\u00dfe", "addr:suburb": "Kreuzberg", "amenity": "university", "contact:website": "https://www.ue-germany.com", "name": "Hochschule f\u00fcr Angewandte Wissenschaften Europa", "name:en": "University of Applied Sciences Europe", "old_name": "Hochschule f\u00fcr Gestaltung", "operator": "University of Applied Sciences Europe GmbH", "short_name": "UE"}}, {"type": "node", "id": 2502014632, "lat": 52.5118736, "lon": 13.3303286, "tags": {"access": "permissive", "addr:city": "Berlin", "addr:country": "DE", "addr:housename": "Z", "addr:housenumber": "1", "addr:postcode": "10623", "addr:room": "Z002", "addr:street": "Fasanenstra\u00dfe", "addr:suburb": "Charlottenburg", "amenity": "university", "contact:facebook": "https://www.facebook.com/pages/Caf%C3%A9-Erdreich/436195883165585", "description": "studentischer selbstverwalteter Lern- und Fachschaftsraum", "name": "Erdreich", "website": "https://asta.tu-berlin.de/campus/cafe-erdreich", "wheelchair": "yes"}}, {"type": "node", "id": 2502014633, "lat": 52.510942, "lon": 13.3287375, "tags": {"addr:city": "Berlin", "addr:country": "DE", "addr:housename": "Z", "addr:housenumber": "135", "addr:postcode": "10623", "addr:street": "Stra\u00dfe des 17. Juni", "addr:suburb": "Charlottenburg", "amenity": "university", "contact:website": "http://www.zwille.org/", "name": "Zwille", "note": "Erdgeschoss, ein studentischer selbstverwalteter Projektraum; Vok\u00fc; etc.", "smoking": "no", "toilets:wheelchair": "no", "wheelchair": "limited"}}, {"type": "node", "id": 3417573998, "lat": 52.4612333, "lon": 13.2945561, "tags": {"addr:city": "Berlin", "addr:country": "DE", "addr:housenumber": "20", "addr:postcode": "14195", "addr:street": "Koserstra\u00dfe", "addr:suburb": "Dahlem", "alt_name": "Bauteil B", "amenity": "university", "name": "FB Veterin\u00e4rmedizin", "operator": "Freie Universit\u00e4t Berlin"}}, {"type": "node", "id": 3428289482, "lat": 52.4482831, "lon": 13.27733, "tags": {"addr:city": "Berlin", "addr:country": "DE", "addr:housenumber": "35-39", "addr:postcode": "14195", "addr:street": "Garystra\u00dfe", "addr:suburb": "Dahlem", "alt_name": "Center f\u00fcr Digitale Systeme", "amenity": "university", "name": "CeDiS", "operator": "Freie Universit\u00e4t Berlin"}}, {"type": "node", "id": 3459210437, "lat": 52.4523204, "lon": 13.2917388, "tags": {"addr:city": "Berlin", "addr:country": "DE", "addr:housenumber": "45", "addr:postcode": "14195", "addr:street": "Habelschwerdter Allee", "addr:suburb": "Dahlem", "alt_name": "Silberlaube", "amenity": "university", "name": "Technische Abteilung - Referat III D", "operator": "Freie Universit\u00e4t Berlin", "toilets:wheelchair": "yes", "wheelchair": "yes"}}, {"type": "node", "id": 4198545324, "lat": 52.512124, "lon": 13.3877126, "tags": {"addr:city": "Berlin", "addr:housenumber": "60", "addr:postcode": "10117", "addr:street": "Mohrenstra\u00dfe", "amenity": "university", "name": "Gro\u00dfbritannien-Zentrum", "name:de": "Gro\u00dfbritannien-Zentrum", "name:en": "Centre for British Studies", "operator": "Humboldt-Universit\u00e4t zu Berlin", "toilets:wheelchair": "no", "website": "https://www.gbz.hu-berlin.de", "wheelchair": "yes", "wikidata": "Q1548081", "wikipedia": "de:Gro\u00dfbritannien-Zentrum"}}, {"type": "node", "id": 4383801533, "lat": 52.4917013, "lon": 13.3604031, "tags": {"addr:city": "Berlin", "addr:country": "DE", "addr:housenumber": "188", "addr:postcode": "10783", "addr:street": "Potsdamer Stra\u00dfe", "addr:suburb": "Sch\u00f6neberg", "amenity": "university", "name": "SRH Hochschule f\u00fcr popul\u00e4re K\u00fcnste", "phone": "+49 30 233 20 66 10", "short_name": "hdpk", "website": "https://www.hdpk.de/de/startseite/", "wheelchair": "yes"}}, {"type": "node", "id": 4752986351, "lat": 52.5203069, "lon": 13.3939818, "tags": {"addr:city": "Berlin", "addr:housenumber": "47", "addr:postcode": "10117", "addr:street": "Georgenstra\u00dfe", "amenity": "university", "internet_access": "yes", "name": "Institut f\u00fcr Kulturwissenschaft", "operator": "Humboldt Universit\u00e4t zu Berlin", "wheelchair": "yes"}}, {"type": "node", "id": 4868588243, "lat": 52.5202537, "lon": 13.3940633, "tags": {"addr:city": "Berlin", "addr:housenumber": "47", "addr:postcode": "10117", "addr:street": "Georgenstra\u00dfe", "amenity": "university", "internet_access": "yes", "name": "Zentrum f\u00fcr Transdisziplin\u00e4re Geschlechterforschung", "operator": "Humboldt Universit\u00e4t zu Berlin", "wheelchair": "yes"}}, {"type": "node", "id": 4868588244, "lat": 52.5203005, "lon": 13.3941618, "tags": {"addr:city": "Berlin", "addr:housenumber": "47", "addr:postcode": "10117", "addr:street": "Georgenstra\u00dfe", "amenity": "university", "internet_access": "yes", "name": "Fachgebiet Medienwissenschaft", "operator": "Humboldt Universit\u00e4t zu Berlin", "wheelchair": "yes"}}, {"type": "node", "id": 4868588245, "lat": 52.5203586, "lon": 13.3940729, "tags": {"addr:city": "Berlin", "addr:housenumber": "47", "addr:postcode": "10117", "addr:street": "Georgenstra\u00dfe", "amenity": "university", "internet_access": "yes", "name": "Institut f\u00fcr Kunst- und Bildgeschichte", "operator": "Humboldt Universit\u00e4t zu Berlin", "wheelchair": "yes"}}, {"type": "node", "id": 5374911182, "lat": 52.5126144, "lon": 13.3953491, "tags": {"amenity": "university", "name": "HU-Institut f\u00fcr Europ\u00e4ische Ethnologie", "name:de": "HU-Institut f\u00fcr Europ\u00e4ische Ethnologie", "name:en": "HU Institute of European Ethnology", "website": "https://www.euroethno.hu-berlin.de"}}, {"type": "node", "id": 5761214192, "lat": 52.5062237, "lon": 13.3785736, "tags": {"addr:city": "Berlin", "addr:country": "DE", "addr:housenumber": "3-5", "addr:postcode": "10963", "addr:street": "Dessauer Stra\u00dfe", "addr:suburb": "Kreuzberg", "amenity": "university", "contact:website": "https://design.htk-ak.de/en/berlin", "name": "Akademie f\u00fcr Gestaltung", "name:en": "Academy of Design", "operator": "HTK GmbH", "short_name": "HTK"}}, {"type": "node", "id": 5901612622, "lat": 52.5237379, "lon": 13.4860555, "tags": {"addr:city": "Berlin", "addr:housenumber": "1", "addr:postcode": "10367", "addr:street": "Vulkanstra\u00dfe", "amenity": "university", "internet_access": "wlan", "name": "DHGS Deutsche Hochschule f\u00fcr Gesundheit und Sport", "operator": "DHGS Deutsche Hochschule f\u00fcr Gesundheit und Sport GmbH", "phone": "+493057797370", "website": "https://www.dhgs-hochschule.de", "wikidata": "Q1622185", "wikipedia": "de:Deutsche Hochschule f\u00fcr Gesundheit und Sport"}}, {"type": "node", "id": 6063227820, "lat": 52.5289849, "lon": 13.3803035, "tags": {"amenity": "university", "name": "Albrecht-Kossel-H\u00f6rsaal", "wheelchair": "yes"}}, {"type": "node", "id": 6549447488, "lat": 52.5385295, "lon": 13.3846586, "tags": {"addr:housenumber": "76", "addr:street": "Ackerstra\u00dfe", "amenity": "university", "name": "HMKW Hochschule f\u00fcr Medien Kommunikation und Wirtschaft"}}, {"type": "node", "id": 7298859535, "lat": 52.4789373, "lon": 13.5003063, "tags": {"amenity": "university", "isced:level": "5", "name": "Catalyst Institute For Creative Arts & Technology", "opening_hours": "Mo-Sa 10:00-22:00", "phone": "+49 +493029009052", "website": "https://catalyst-berlin.com/", "wheelchair": "limited"}}, {"type": "way", "id": 4751140, "nodes": [30303179, 30303180, 3893487782, 3865037281, 30303182, 30303183, 3892401869, 3892401870, 30303184, 30303185, 570764577, 650385855, 30303186, 1277489840, 278850740, 3865037277, 30303188, 276325866, 3865037276, 3865037275, 3865037274, 3865037273, 30303179], "tags": {"amenity": "university", "name": "Beuth Hochschule f\u00fcr Technik Berlin", "short_name": "BHT", "website": "https://www.beuth-hochschule.de/", "wheelchair": "limited", "wikidata": "Q851413", "wikipedia": "de:Beuth Hochschule f\u00fcr Technik Berlin"}}, {"type": "way", "id": 4764104, "nodes": [30427979, 30429057, 30429058, 3303132306, 30429068, 30429069, 30427979], "tags": {"addr:city": "Berlin", "addr:country": "DE", "addr:suburb": "Charlottenburg", "amenity": "university", "name": "Universit\u00e4t der K\u00fcnste", "toilets:wheelchair": "yes", "wheelchair": "yes"}}, {"type": "way", "id": 23557224, "nodes": [2933323943, 2933323942, 2933323945, 2933323948, 2933323947, 2933323950, 2933323955, 2933323953, 255096564, 3506755449, 2933323963, 3506755426, 8202533944, 8202533943, 8202533942, 8202533941, 8202533940, 3506755419, 3506755425, 3506755424, 3506755423, 3506755422, 3506755421, 3506755418, 8202533939, 3506755420, 8202533938, 3506755417, 3506755415, 3506755414, 255096541, 3506755445, 3506755446, 8202533930, 8202533934, 8202533929, 8202533928, 8202533927, 8202533926, 8202533935, 8202533936, 3506755448, 8202533937, 3506755447, 2933323943], "tags": {"addr:city": "Berlin", "addr:country": "DE", "addr:housenumber": "3", "addr:postcode": "14129", "addr:street": "Badeweg", "addr:suburb": "Nikolassee", "alt_name": "Wassersportzentrum", "amenity": "university", "name": "ZE Hochschulsport", "operator": "Freie Universit\u00e4t Berlin", "source": "Geoportal Berlin / Hauskoordinaten"}}, {"type": "way", "id": 23853100, "nodes": [258496793, 5473650732, 538835258, 2452353709, 5412835912, 538835303, 538835260, 538835017, 258496797, 538835263, 538835264, 5412835909, 538835265, 5473650617, 258496799, 258496793], "tags": {"amenity": "university", "building": "yes", "building:levels": "6", "name": "Theologische Fakult\u00e4t der HU", "operator": "Humboldt-Universit\u00e4t zu Berlin", "toilets:wheelchair": "yes", "website": "http://www2.hu-berlin.de/theologie/index.htm", "wheelchair": "yes"}}, {"type": "way", "id": 24247240, "nodes": [249075198, 3161170640, 564733481, 1812490332, 540634045, 4405800389, 4405799388, 4867513517, 4405799387, 4361705947, 4361705946, 540645286, 4361707938, 2005527322, 4114009349, 249075226, 262526121, 249075212, 458914811, 262526127, 262526126, 540633244, 249075198], "tags": {"addr:city": "Berlin", "addr:housenumber": "1", "addr:postcode": "10178", "addr:street": "Schlo\u00dfplatz", "alt_name": "ESMT", "amenity": "university", "contact:email": "info@esmt.org", "contact:phone": "+4930212310", "contact:website": "http://esmt.org", "name": "European School of Management and Technology Berlin", "short_name": "ESMT Berlin", "website": "http://esmt.org", "wikidata": "Q569528", "wikipedia": "de:European School of Management and Technology"}}, {"type": "way", "id": 24303943, "nodes": [263336296, 346233357, 346233361, 346233389, 346233393, 930500409, 346233396, 346233392, 346233386, 346233384, 263336298, 263336299, 2031643901, 2031643894, 2031643869, 2031643870, 263336301, 263336302, 2031643910, 2031643924, 263336306, 263336317, 2031643990, 2031643995, 2031643992, 2031643988, 2031643972, 2031643986, 2031643982, 2031643970, 2031643957, 2031643968, 2031643964, 2031643955, 2031643950, 2031643954, 2031643951, 2031643948, 2031643939, 2031643947, 2031643941, 2031643935, 263336319, 263336321, 1588635746, 1588635743, 263336323, 263336324, 2031643823, 2031643820, 2031643802, 2031643804, 263336326, 263336296], "tags": {"addr:city": "Berlin", "addr:country": "DE", "addr:housenumber": "2-5", "addr:postcode": "10823", "addr:street": "Grunewaldstra\u00dfe", "addr:suburb": "Sch\u00f6neberg", "amenity": "university", "building": "yes", "name": "Medienhaus der Universit\u00e4t der K\u00fcnste", "operator": "Universit\u00e4t der K\u00fcnste Berlin", "short_name": "UdK Berlin Medienhaus", "source": "yahoo", "website": "http://medienhaus.udk-berlin.de/pages/Main_Page"}}, {"type": "way", "id": 24895009, "nodes": [270492455, 270492456, 6969361625, 270492457, 270492458, 270492455], "tags": {"addr:city": "Berlin", "addr:country": "DE", "addr:housenumber": "74-100", "addr:postcode": "12249", "addr:street": "Malteserstra\u00dfe", "addr:suburb": "Lankwitz", "alt_name": "Haus T", "amenity": "university", "building": "university", "building:levels": "1", "building:roof:colour": "red", "building:roof:shape": "gabled", "name": "Haus T", "operator": "Freie Universit\u00e4t Berlin", "roof:levels": "1"}}, {"type": "way", "id": 24896322, "nodes": [531754501, 531754505, 280467283, 280467281, 280467280, 278903226, 278903228, 278903229, 30739375, 30739374, 30739373, 30739372, 30739371, 206143935, 2360460813, 30739369, 30739368, 6969361631, 278145374, 6969361642, 531754514, 270525419, 531754496, 531754498, 531754499, 531754501], "tags": {"amenity": "university", "barrier": "fence", "name": "FU Berlin GeoCampus", "wheelchair": "yes"}}, {"type": "way", "id": 25468388, "nodes": [277520798, 4522421447, 4522424532, 277520800, 4522421488, 4522421467, 4522421458, 4522421428, 4522421434, 4522421426, 4522421483, 4522424498, 4522421435, 4522424524, 4522421429, 277520801, 4522421481, 4522424489, 277520799, 4522424502, 4522421470, 4522421430, 4522421485, 4522424515, 4522421446, 4522424496, 4522421431, 4522424493, 4522421461, 4522421469, 277520798], "tags": {"addr:city": "Berlin", "addr:country": "DE", "addr:housenumber": "24-26", "addr:postcode": "14195", "addr:street": "K\u00f6nigin-Luise-Stra\u00dfe", "addr:suburb": "Dahlem", "amenity": "university", "building": "university", "name": "FB Mathematik und Informatik", "operator": "Freie Universit\u00e4t Berlin"}}, {"type": "way", "id": 25484843, "nodes": [277694270, 277694271, 3177934111, 3177934112, 277694272, 277694273, 3177934113, 3177934114, 277694270], "tags": {"addr:city": "Berlin", "addr:country": "DE", "addr:housenumber": "47", "addr:postcode": "14195", "addr:street": "K\u00f6nigin-Luise-Stra\u00dfe", "addr:suburb": "Dahlem", "alt_name": "Sporthalle", "amenity": "university", "building": "university", "name": "ZE Hochschulsport", "operator": "Freie Universit\u00e4t Berlin"}}, {"type": "way", "id": 26640237, "nodes": [3859012913, 3859012917, 3859012916, 3859012910, 3859012911, 3859012908, 3859012907, 3859012902, 3859012903, 3859012897, 3859012896, 3859012886, 3859012887, 3859012885, 3859012884, 3859012883, 3859012878, 3859012879, 3859012875, 3859012872, 3859012867, 3859012866, 3859012856, 3859012857, 3859012851, 3859012853, 3859012841, 3859012839, 3859012835, 3859012824, 3859012825, 3859012818, 3859012817, 3859012811, 3859012812, 3859012806, 3859012807, 3859012804, 3859012805, 3859012808, 3859012809, 3859012816, 3859012815, 3859012831, 3859012832, 3859012845, 3859012844, 3859012860, 3859012890, 3859012891, 3859012895, 3859012894, 3859012904, 3859012905, 3859012914, 3859012913], "tags": {"addr:city": "Berlin", "addr:country": "DE", "addr:housenumber": "1-12", "addr:postcode": "10719", "addr:street": "Bundesallee", "addr:suburb": "Wilmersdorf", "amenity": "university", "building": "university", "name": "Universit\u00e4t der K\u00fcnste Berlin", "old_name": "ehemaliges Joachimsthalsches Gymnasium", "website": "https://www.udk-berlin.de/"}}, {"type": "way", "id": 26708245, "nodes": [3229469798, 3229469799, 3229469801, 3229469788, 3229469784, 3229469779, 3229469771, 3229469770, 3229469768, 3229469767, 3229469766, 3229469764, 3229469762, 3229469763, 3229469765, 3229469760, 3229469756, 3229469758, 3229469746, 3229469747, 3229469737, 3229469733, 3229469727, 3229469724, 3229469719, 3229469711, 3229469710, 3229469708, 3229469706, 3229469704, 3229469701, 3229469697, 3229469695, 3229469693, 3229469692, 3229469687, 3229469679, 3229469702, 3229469694, 3229469709, 3229469705, 3229469738, 3229469743, 3229469748, 292917471, 292917463, 3229469774, 3229469773, 3229469775, 3229469777, 3229469780, 3229469798], "tags": {"addr:city": "Berlin", "addr:country": "DE", "addr:housenumber": "45", "addr:postcode": "10789", "addr:street": "Lietzenburger Stra\u00dfe", "addr:suburb": "Wilmersdorf", "amenity": "university", "building": "yes", "name": "Universit\u00e4t der K\u00fcnste Berlin", "website": "https://www.udk-berlin.de/", "wheelchair": "yes"}}, {"type": "way", "id": 27183056, "nodes": [5846555334, 5846555333, 5846555332, 5846555331, 5846555330, 5846555329, 5846555328, 298266149, 298266118, 1437956442, 298266150, 1437956438, 298266113, 298266147, 298266116, 5846555334], "tags": {"alt_name": "Gew\u00e4chshaus", "amenity": "university", "building": "university", "name": "FB Biologie, Chemie, Pharmazie", "operator": "Freie Universit\u00e4t Berlin"}}, {"type": "way", "id": 27910378, "nodes": [847532212, 847532215, 847532217, 847532213, 847532214, 343312738, 343312740, 474985900, 474985899, 561237485, 847532212], "tags": {"amenity": "university", "name": "Charit\u00e9-Standort Thielallee/Garystra\u00dfe", "name:en": "Charit\u00e9 site Thielallee/Garystra\u00dfe"}}, {"type": "way", "id": 28701318, "nodes": [315513676, 315513677, 315513678, 315513680, 315513676], "tags": {"alt_name": "M\u00e4usebunker", "amenity": "university", "building": "yes", "name": "Zentrale Tierlaboratorien", "wikidata": "Q62669101"}}, {"type": "way", "id": 28701438, "nodes": [3984299803, 3984299793, 3984299794, 3984299771, 3984299770, 3984300862, 3984300628, 3984300617, 3984300612, 3984300607, 3984300603, 3984300597, 3984297454, 3984297443, 3984291478, 3984291467, 3984299762, 3984299761, 3984299369, 3984299387, 3984299399, 3984299412, 3984299422, 3984299442, 3984299759, 3984299455, 3984299451, 3984299453, 3984299757, 3984291481, 3984291484, 3984291482, 8345737079, 3984291465, 3984291463, 3984299760, 3984299363, 3984299359, 3984299153, 3984299148, 3984299126, 3984291507, 3984291520, 3984291528, 3984291531, 3984297446, 3984300563, 3984300575, 3984300605, 3984300610, 3984300615, 3984297439, 3984291548, 3984291542, 3984291537, 3984291534, 3984291540, 3984291543, 8345737078, 3984300568, 3984300572, 3984300573, 3984300869, 3984300878, 3984300884, 3984300888, 3984300894, 3984300907, 3984300950, 3984300952, 3984300953, 3984299803], "tags": {"addr:city": "Berlin", "addr:country": "DE", "addr:housenumber": "27", "addr:postcode": "12203", "addr:street": "Hindenburgdamm", "addr:suburb": "Lichterfelde", "amenity": "university", "building": "yes", "name": "Institut f\u00fcr Mikrobiologie und Hygiene der Charit\u00e9", "website": "https://www.charite.de/imh/", "wikidata": "Q89669401"}}, {"type": "way", "id": 30432728, "nodes": [335849982, 7858940027, 5409370378, 5409370379, 4568729491, 5535471496, 335849983, 4568729492, 4568729493, 3756192571, 335849985, 4568729494, 7858940031, 7858940028, 335849986, 335849982], "tags": {"amenity": "university", "denomination": "protestant", "name": "Evangelische Hochschule Berlin", "religion": "christian", "website": "https://www.eh-berlin.de/", "wheelchair": "limited", "wikipedia": "de:Evangelische Hochschule Berlin"}}, {"type": "way", "id": 34551346, "nodes": [3203126667, 3203126668, 619119216, 5913260246, 619119080, 5913260247, 3335670421, 400912829, 400912818, 3335670418, 3335670420, 3335670419, 5761959940, 5761959924, 746491832, 5761959938, 5761959939, 5761959937, 5761959936, 5761959935, 3187288208, 3187288209, 400912817, 3369118058, 643370054, 3369118057, 5913258501, 5912238770, 3369118066, 3369118068, 3369118067, 3407707824, 3407707825, 3415517127, 5913437021, 3203126158, 313007007, 3203126662, 3203126669, 5418829632, 3203126667], "tags": {"amenity": "university", "name": "Universit\u00e4t der K\u00fcnste", "old_name": "Hochschule der K\u00fcnste Berlin", "website": "https://www.udk-berlin.de/", "wheelchair": "limited", "wikidata": "Q55038", "wikipedia": "de:Universit\u00e4t der K\u00fcnste Berlin"}}, {"type": "way", "id": 37134861, "nodes": [1635716679, 7058724388, 6135636927, 298262888, 6513497222, 6513497215, 6513497216, 6513497217, 6513497218, 6513497219, 6513497220, 6513497221, 298262890, 8171438370, 298262891, 6513497228, 6513497229, 298262894, 6513497230, 6513497231, 6513497233, 6854488175, 6854488179, 6854488182, 2319180079, 2319180077, 6853840081, 6854488178, 5922530390, 31138253, 1391115682, 5846555347, 5846555344, 5846555345, 5846555346, 1635716679], "tags": {"amenity": "university"}}, {"type": "way", "id": 37415984, "nodes": [437327085, 437327086, 653911559, 2379197947, 2379197946, 2379197945, 437327083, 437327085], "tags": {"addr:housenumber": "3", "addr:street": "Stromstra\u00dfe", "amenity": "university", "building": "office", "building:levels": "4", "name": "International Psychoanalytical University", "operator": "IPU", "roof:shape": "flat", "source": "Yahoo WMS", "toilets:wheelchair": "no", "wheelchair": "limited", "wikidata": "Q1666832"}}, {"type": "way", "id": 40106791, "nodes": [671564319, 671564331, 671564333, 6292598089, 6292598088, 1632825301, 1625169447, 1976653178, 1976653179, 1976653177, 671564378, 671564371, 5831465449, 280557230, 702256927, 671564370, 671564367, 6405281695, 101344627, 301331747, 671564359, 1560592855, 1560592847, 5383660693, 5383660694, 671564355, 552384758, 671564347, 671564344, 671564340, 671564319], "tags": {"amenity": "university", "name": "Humboldt-Universit\u00e4t Campus Adlershof", "name:en": "Humboldt University Adlershof Campus", "website": "https://www.adlershof.hu-berlin.de/", "wheelchair": "yes"}}, {"type": "way", "id": 41361350, "nodes": [2095251802, 5942311178, 2095251765, 2095251758, 2095251743, 2095251733, 276507780, 5937146485, 276507777, 505813771, 86058434, 4093356911, 86058429, 2095251751, 2095251732, 366935143, 366935142, 2095251752, 505659596, 536668235, 5899664169, 505817076, 505656455, 505817072, 505816858, 366934928, 2095251817, 2095251844, 244152386, 2095251907, 2968126943, 277003134, 1488371916, 2095251802], "tags": {"amenity": "university", "name": "Hochschule f\u00fcr Technik und Wirtschaft Berlin Campus Wilhelminenhof", "name:de": "Hochschule f\u00fcr Technik und Wirtschaft Berlin Campus Wilhelminenhof", "name:en": "University of Applied Sciences Wilhelminenhof Campus", "toilets:wheelchair": "yes", "website": "https://www.htw-berlin.de/campus/campus-wilhelminenhof/", "wheelchair": "yes"}}, {"type": "way", "id": 43011801, "nodes": [262524674, 262524675, 538803574, 538803578, 538803580, 262524654, 538804508, 262524655, 538802862, 262524676, 6967775508, 6967775503, 6967775517, 1206624314, 1070809018, 262524674], "tags": {"amenity": "university"}}, {"type": "way", "id": 43014631, "nodes": [538829244, 538829243, 2268130718, 534694577, 534694576, 2268130735, 2268130738, 2268130737, 2268130739, 2268130740, 538829256, 2268154415, 2268154417, 538830148, 2268154409, 2268154402, 2268130708, 2268130702, 2268130689, 2268130686, 2268130685, 2268130682, 2268130679, 2268130676, 2268130665, 2268130654, 2268130670, 2268130675, 2268130678, 2268130681, 2268130683, 2268130684, 2268130634, 2268130621, 534694572, 2268130614, 534694573, 538829253, 2268130680, 2268130695, 538829252, 538829250, 2268130719, 2268130720, 2268130724, 2268130722, 2268130732, 2268130734, 538829248, 2268130736, 2268130730, 2268130729, 2268130728, 2268130727, 2268130726, 2268130725, 2268130723, 2268130721, 538829244], "tags": {"amenity": "university", "building": "yes", "name": "Wirtschaftswissenschaftliche Fakult\u00e4t der HU", "website": "https://www.wiwi.hu-berlin.de/", "wheelchair": "yes"}}, {"type": "way", "id": 43186776, "nodes": [541127527, 541128840, 540969533, 539809191, 540969546, 539809177, 539809178, 540970373, 1210473729, 539809180, 3231994578, 3693357989, 3694980243, 3694980242, 3694980241, 1350637329, 541127527], "tags": {"amenity": "university", "wheelchair": "yes"}}, {"type": "way", "id": 44183029, "nodes": [1496086442, 8194851399, 561237595, 26917794, 1610905821, 26917803, 1610905812, 561237470, 31269833, 31269834, 561237476, 1617082074, 1616141398, 1617082069, 1617082043, 1617082026, 1617082022, 1617082018, 1617081985, 1506423381, 561237510, 307822972, 307822973, 307822975, 1617081993, 1617081989, 1617081991, 7554431562, 7554431561, 7554431560, 7554431559, 7554431558, 5017435636, 4859400590, 1617081978, 847532212, 561237485, 474985899, 474985900, 343312740, 343312738, 847532214, 1616141366, 29916401, 968157715, 31388486, 1616141389, 1616141379, 3907466402, 1616141358, 3907465267, 1616141350, 3907463429, 1616141340, 3907461823, 3907504762, 3907460071, 3907459749, 3907459742, 31388607, 3907460451, 3907460574, 3907460589, 31388594, 3907460635, 3907462504, 3907465293, 3907466082, 1616141377, 3907467109, 3907467600, 1616141394, 3907468311, 1616141395, 1610905794, 561237581, 312138531, 1638786755, 1638786779, 734473510, 1496086441, 3907505431, 734473550, 1610905825, 3907505441, 734473513, 734473530, 8194851400, 1496086442], "tags": {"amenity": "university", "name": "Freie Universit\u00e4t Berlin"}}, {"type": "way", "id": 49115946, "nodes": [2742834270, 622920931, 2742834269, 2742834272, 622920933, 2742834276, 622920932, 622920928, 622920927, 2742834260, 2742834261, 2742834263, 2742834264, 622920973, 622920982, 2742834270], "tags": {"amenity": "university", "building": "yes", "name": "FU Institut f. Pharmazie", "wheelchair": "yes"}}, {"type": "way", "id": 49327131, "nodes": [626437962, 4419395758, 296475631, 933555541, 4419395795, 4419395808, 296475632, 4419395830, 4419395775, 5409365446, 5409365445, 4419395753, 4419395751, 4419395658, 1906505349, 4419395664, 626437401, 626437355, 4419395682, 1625168377, 4419395683, 4419395687, 3782074478, 4419395742, 4419395741, 4419395743, 4419395744, 4419395746, 626437962], "tags": {"amenity": "university", "name": "FU Fachbereich Veterin\u00e4rmedizin", "operator": "Freie Universit\u00e4t Berlin", "website": "http://www.vetmed.fu-berlin.de/standorte/dueppel/index.html"}}, {"type": "way", "id": 59359987, "nodes": [2918241306, 2918240234, 2918240310, 6535848481, 6535848477, 6535848475, 6535848476, 6535848478, 2918240505, 6535848474, 6535848473, 6535848472, 736204145, 2927110020, 2918241306], "tags": {"amenity": "university", "name": "Kunsthochschule Berlin-Wei\u00dfensee", "website": "https://kh-berlin.de/", "wheelchair": "no", "wikidata": "Q1773894"}}, {"type": "way", "id": 78183479, "nodes": [918358473, 8857639677, 26836005, 918358475, 918358229, 8857639670, 5932885270, 918358473], "tags": {"amenity": "university", "contact:phone": "+49 30 320070", "contact:website": "https://www.escp.eu/berlin", "description": "Berlin Campus", "name": "ESCP Business School", "operator": "ESCP", "wheelchair": "limited"}}, {"type": "way", "id": 93079786, "nodes": [3184405474, 3184405463, 3184405466, 3184405441, 3184405425, 3184405403, 3184405405, 3184405346, 3184405343, 3184405337, 3184405332, 3184405328, 3184405326, 3184405322, 3184405318, 3184405315, 3184405313, 3184405310, 3184405311, 3184405312, 3184405314, 3184405317, 3184405321, 3184405324, 3184405327, 3184405304, 3184405303, 3184405300, 3184405298, 3184405296, 3184405290, 3184405287, 3184405285, 3184405282, 3184405280, 3184405281, 3184405283, 3184405286, 3184405288, 3184405292, 3184405297, 3184405293, 3184405370, 3184405383, 3184405411, 3184405413, 3184405424, 3184405431, 3184405439, 3184405447, 3184405474], "tags": {"addr:city": "Berlin", "addr:country": "DE", "addr:housenumber": "18", "addr:postcode": "14195", "addr:street": "Pacelliallee", "addr:suburb": "Dahlem", "amenity": "university", "building": "yes", "building:name": "Haus Cramer", "building:website": "http://www.stadtentwicklung.berlin.de/denkmal/denkmale_in_berlin/de/wohnhaeuser/cramer.shtml", "contact:website": "http://www.stanford.fu-berlin.de/", "heritage": "4", "heritage:operator": "lda", "heritage:website": "http://www.stadtentwicklung.berlin.de/cgi-bin/hidaweb/getdoc.pl?DOK_TPL=lda_doc.tpl&KEY=obj%2009075400", "historic": "heritage", "image": "https://commons.wikimedia.org/wiki/File:Pacelliallee_18_Berlin-Dahlem.jpg", "name": "Overseas Campus Stanford University", "old_name": "Haus Cramer", "ref:lda": "09075400", "source": "Geoportal Berlin / Hausumringe"}}, {"type": "way", "id": 95031346, "nodes": [1102702820, 1102702316, 1102702439, 1102702724, 4134956904, 1102702820], "tags": {"addr:housenumber": "43-53", "addr:street": "Einsteinufer", "amenity": "university", "building": "university", "building:levels": "2", "contact:website": "http://www.jazz-institut-berlin.de/", "name": "Jazz-Institut Berlin", "name:en": "Jazz Institute Berlin", "operator": "Universit\u00e4t der K\u00fcnste"}}, {"type": "way", "id": 97283527, "nodes": [2516708170, 1102702753, 1102702691, 4071580398, 1102702383, 1978290065, 1102702573, 2516708173, 1845916389, 1102702634, 1102702865, 1102702752, 1102702595, 1102702513, 1102702809, 2516706403, 2516708170], "tags": {"addr:city": "Berlin", "addr:country": "DE", "addr:housenumber": "43", "addr:postcode": "10587", "addr:street": "Einsteinufer", "addr:suburb": "Charlottenburg", "amenity": "university", "building": "university", "name": "Universit\u00e4tsarchiv \u2013 Universit\u00e4t der K\u00fcnste Berlin", "name:en": "University of the Arts", "old_name": "Hochschule der K\u00fcnste Berlin", "operator": "Universit\u00e4t der K\u00fcnste", "short_name": "UdK Berlin", "wikipedia": "de:Universit\u00e4t der K\u00fcnste Berlin"}}, {"type": "way", "id": 103425572, "nodes": [1194230783, 1194229690, 1194229040, 1194230768, 1194230844, 1194229238, 1194229115, 1194230783], "tags": {"addr:city": "Berlin", "addr:country": "DE", "addr:housenumber": "34", "addr:postcode": "14195", "addr:street": "Br\u00fcmmerstra\u00dfe", "addr:suburb": "Dahlem", "alt_name": "Institut f\u00fcr Tierern\u00e4hrung", "amenity": "university", "building": "university", "building:levels": "2", "contact:website": "http://www.vetmed.fu-berlin.de/einrichtungen/institute/we04/index.html", "name": "FB Veterin\u00e4rmedizin", "operator": "Freie Universit\u00e4t Berlin", "roof:levels": "1", "source": "Geoportal Berlin / k5_2012_sw_sued.zip"}}, {"type": "way", "id": 103716582, "nodes": [2504634811, 1197436861, 1197438458, 1197439043, 1197438802, 1197435659, 1197441239, 1197434138, 1197439848, 1197437534, 1197433824, 2504634810, 2504634807, 2504634806, 2504634805, 2504634808, 2504634812, 2504634809, 2504634811], "tags": {"addr:city": "Berlin", "addr:housenumber": "26/28", "addr:postcode": "14195", "addr:street": "Ehrenbergstra\u00dfe", "amenity": "university", "building": "university", "building:levels": "3", "name": "FB Geschichts- und Kulturwissenschaften", "operator": "Freie Universit\u00e4t Berlin", "roof:levels": "1", "roof:shape": "gabled"}}, {"type": "way", "id": 106510348, "nodes": [1225357775, 1225357508, 1225360017, 1225358490, 1225357775], "tags": {"addr:city": "Berlin", "addr:housenumber": "6-8", "addr:postcode": "14195", "addr:street": "Albrecht-Thaer-Weg", "addr:suburb": "Dahlem", "alt_name": "Institut f\u00fcr Angewandte Genetik", "alt_name_1": "Lager", "amenity": "university", "building": "warehouse", "name": "FB Biologie, Chemie, Pharmazie", "operator": "Freie Universit\u00e4t Berlin"}}, {"type": "way", "id": 106510482, "nodes": [1225358029, 1225357755, 1225360225, 1225358767, 1225358029], "tags": {"addr:city": "Berlin", "addr:housenumber": "6-8", "addr:postcode": "14195", "addr:street": "Albrecht-Thaer-Weg", "addr:suburb": "Dahlem", "alt_name": "Institut f\u00fcr Angewandte Genetik", "alt_name_1": "Georg-Mendel-Gew\u00e4chshaus", "amenity": "university", "building": "greenhouse", "name": "FB Biologie, Chemie, Pharmazie", "operator": "Freie Universit\u00e4t Berlin"}}, {"type": "way", "id": 125192737, "nodes": [1391111065, 2849531627, 1391111084, 1391111077, 1391111200, 1391111096, 1391111166, 1391111131, 1391111065], "tags": {"addr:city": "Berlin", "addr:country": "DE", "addr:housenumber": "1/3", "addr:postcode": "14195", "addr:street": "K\u00f6nigin-Luise-Stra\u00dfe", "addr:suburb": "Steglitz", "alt_name": "Institut f\u00fcr Zoologie", "alt_name_1": "Neubau", "amenity": "university", "building": "university", "name": "FB Biologie, Chemie, Pharmazie", "operator": "Freie Universit\u00e4t Berlin"}}, {"type": "way", "id": 140978872, "nodes": [3229469037, 3229468983, 3229468985, 3229469039, 3229469038, 3229469037], "tags": {"amenity": "university", "building": "yes", "name": "Universit\u00e4t der K\u00fcnste Berlin", "website": "https://www.udk-berlin.de/"}}, {"type": "way", "id": 150510855, "nodes": [1634130455, 5346648838, 1634130447, 1634130445, 1634130441, 1634130443, 1634130449, 5901941341, 5346648837, 1634130451, 1634130453, 5901941352, 1634130455], "tags": {"addr:city": "Berlin", "addr:country": "DE", "addr:housenumber": "4-6", "addr:postcode": "14197", "addr:street": "A\u00dfmannshauser Stra\u00dfe", "addr:suburb": "Wilmersdorf", "amenity": "university", "contact:website": "https://zahnmedizin.charite.de", "name": "Charit\u00e9 Centrum 3 f\u00fcr Zahn-, Mund- und Kieferheilkunde / Au\u00dfenstandort A\u00dfmannshauser Stra\u00dfe 4-6", "name:en": "Charit\u00e9 Center 3 Institute for Dental and Craniofacial Sciences / Campus A\u00dfmannshauser Stra\u00dfe 4-6", "operator": "Charit\u00e9 \u2013 Universit\u00e4tsmedizin Berlin", "website": "https://zahnmedizin.charite.de/", "wheelchair": "yes"}}, {"type": "way", "id": 156066224, "nodes": [1683679872, 1683679861, 1683679850, 1683679776, 1683679731, 1683679673, 2063579217, 1653119510, 1683679663, 1683679787, 1683679814, 1683679864, 1683679872], "tags": {"addr:city": "Berlin", "addr:country": "DE", "addr:housenumber": "18", "addr:postcode": "12524", "addr:street": "Rudower Stra\u00dfe", "addr:suburb": "Altglienicke", "amenity": "university", "name": "Humboldt-Universit\u00e4t Sportzentrum Adlershof"}}, {"type": "way", "id": 172290294, "nodes": [345130844, 8194851367, 8194851376, 345130843, 345130840, 8194851365, 8194851363, 8194851364, 8194851366, 345130841, 345130844], "tags": {"addr:city": "Berlin", "addr:country": "DE", "addr:housenumber": "55", "addr:postcode": "14195", "addr:street": "Garystra\u00dfe", "addr:suburb": "Dahlem", "alt_name": "Osteuropa-Institut", "amenity": "university", "building": "university", "building:levels": "4", "name": "FB Politik- und Sozialwissenschaften", "name:en": "FU Institute for East European Studies", "operator": "Freie Universit\u00e4t Berlin", "short_name": "Osteuropa-Institut", "short_name:en": "East European Studies", "wheelchair": "yes"}}, {"type": "way", "id": 174910521, "nodes": [1855546259, 1494052509, 1494052504, 2453777665, 1706147655, 1855564130, 1706147590, 1855546253, 1855564128, 1857013932, 1857013933, 1857026727, 1857013938, 1855546255, 1855564121, 2452738632, 5319055625, 1855564120, 2452738633, 1641532802, 5319055624, 5319055623, 2453777624, 1855564127, 2453777638, 2452556216, 325087838, 325087839, 325087840, 325087841, 1857026768, 325087842, 1855564136, 6305136292, 325087843, 1855546259], "tags": {"amenity": "university", "name": "Humboldt-Universit\u00e4t zu Berlin", "name:cs": "Humboldtova univerzita v Berl\u00edn\u011b", "wheelchair": "no"}}, {"type": "way", "id": 174912854, "nodes": [1855546255, 1857013938, 1857026727, 1857013933, 1857013932, 1855564128, 1855546253, 1895630063, 1706147734, 1855564124, 1855564123, 1855564122, 5319055528, 1855564121, 1855546255], "tags": {"amenity": "university", "name": "Freie Universit\u00e4t Berlin"}}, {"type": "way", "id": 238709112, "nodes": [3736494804, 733557828, 2465128769, 3736494800, 3736494804], "tags": {"amenity": "university"}}, {"type": "way", "id": 269001492, "nodes": [622920931, 2742834270, 2742834271, 2742834273, 2742834277, 2742834278, 2742834274, 622920961, 622920956, 2742834282, 2742834280, 622920964, 622920962, 622920947, 622920951, 622920937, 622920942, 622920933, 2742834272, 2742834275, 622920931], "tags": {"addr:city": "Berlin", "addr:housenumber": "31", "addr:postcode": "12169", "addr:street": "Kelchstra\u00dfe", "addr:suburb": "Steglitz", "alt_name": "Institut f\u00fcr Pharmazie", "amenity": "university", "building": "yes", "name": "FB Biologie, Chemie, Pharmazie", "operator": "Freie Universit\u00e4t Berlin", "wheelchair": "yes"}}, {"type": "way", "id": 280924689, "nodes": [1391111065, 2849531630, 2849531816, 2849531723, 2849531725, 2279835628, 2279835629, 2849531623, 2849531815, 2849531625, 2849531622, 2279835632, 2849532302, 2849531620, 2279835631, 2849531624, 2849531627, 1391111065], "tags": {"addr:city": "Berlin", "addr:country": "DE", "addr:housenumber": "1/3", "addr:postcode": "14195", "addr:street": "K\u00f6nigin-Luise-Stra\u00dfe", "addr:suburb": "Steglitz", "alt_name": "Institut f\u00fcr Zoologie", "alt_name_1": "Altbau", "amenity": "university", "building": "yes", "name": "FB Biologie, Chemie, Pharmazie", "operator": "Freie Universit\u00e4t Berlin"}}, {"type": "way", "id": 299619564, "nodes": [305555427, 4219347037, 305555315, 2423100949, 305555312, 305495691, 4219346902, 305555431, 3036406403, 4219346904, 4219346897, 7527389688, 4219346935, 4219346940, 305555427], "tags": {"amenity": "university", "barrier": "fence", "name": "Hochschule f\u00fcr Schauspielkunst Ernst Busch", "toilets:wheelchair": "yes", "website": "https://www.hfs-berlin.de/", "wheelchair": "yes", "wikidata": "Q895796", "wikipedia": "de:Hochschule f\u00fcr Schauspielkunst \u201eErnst Busch\u201c Berlin"}}, {"type": "way", "id": 305575198, "nodes": [3102144218, 3102155600, 3102144214, 3102112192, 3102145303, 3102134112, 3102155807, 3102145305, 3102144218], "tags": {"addr:city": "Berlin", "addr:country": "DE", "addr:housenumber": "45", "addr:postcode": "14195", "addr:street": "Garystra\u00dfe", "addr:suburb": "Dahlem", "amenity": "university", "building": "university", "building:levels": "1", "name": "FB Politik- und Sozialwissenschaften", "operator": "Freie Universit\u00e4t Berlin", "wheelchair": "yes"}}, {"type": "way", "id": 322450024, "nodes": [3292198657, 3292198658, 3292198659, 3292198660, 3292208461, 3292208462, 3292208463, 3292208464, 3292198657], "tags": {"addr:city": "Berlin", "addr:country": "DE", "addr:housenumber": "49", "addr:postcode": "14195", "addr:street": "K\u00f6nigin-Luise-Stra\u00dfe", "addr:suburb": "Dahlem", "alt_name": "Stallgeb\u00e4ude", "alt_name_1": "Haus 2", "amenity": "university", "building": "university", "name": "FB Veterin\u00e4rmedizin", "operator": "Freie Universit\u00e4t Berlin"}}, {"type": "way", "id": 395847556, "nodes": [335850404, 3984299790, 335850403, 3986463033, 3986463055, 3986464038, 3986464046, 335850404], "tags": {"amenity": "university"}}, {"type": "way", "id": 395847562, "nodes": [3986463023, 3986462992, 3986463614, 3986463611, 516155184, 516155192, 301712513, 3986463290, 3986463316, 6035987324, 6035987320, 3986463586, 3986463027, 3986463023], "tags": {"addr:city": "Berlin", "addr:housenumber": "6-10", "addr:postcode": "12207", "addr:street": "Krahmerstra\u00dfe", "alt_name": "M\u00e4usebunker", "amenity": "university", "name": "Forschungseinrichtung f\u00fcr experimentelle Medizin", "old_name": "Zentrale Tierlaboratorien der Freien Universit\u00e4t Berlin", "operator": "Charit\u00e9 \u2013 Universit\u00e4tsmedizin Berlin", "wikidata": "Q62669101", "wikipedia": "de:Forschungseinrichtung f\u00fcr experimentelle Medizin"}}, {"type": "way", "id": 420264120, "nodes": [4202094019, 3627872515, 4202093997, 4202093996, 4202093882, 4202093883, 4202093880, 4202093865, 4202093848, 4202093813, 4202093794, 4202092186, 4202092179, 4202092178, 4202092172, 4202092171, 4202092163, 6207757238, 6207757237, 4202092150, 282712128, 1160806409, 4202093839, 4202093840, 4202093859, 282712117, 4202093885, 4202093886, 4202093990, 282712124, 4202093994, 4202093999, 4202094002, 4202094008, 282712110, 4202094019], "tags": {"addr:city": "Berlin", "addr:country": "DE", "addr:housenumber": "27", "addr:postcode": "13347", "addr:street": "Gerichtstra\u00dfe", "addr:suburb": "Gesundbrunnen", "amenity": "university", "name": "Medizinische Akademie IB Hochschule"}}, {"type": "way", "id": 422258226, "nodes": [4219965510, 4219965511, 4219965512, 4219965513, 4219965514, 4219965515, 4219965517, 4219965519, 4219965518, 4219965516, 1988652241, 1988652244, 4217135186, 4217135185, 4217135184, 4217135183, 673868235, 1988652273, 4219965509, 4219965508, 4219965510], "tags": {"addr:city": "Berlin", "addr:country": "DE", "addr:housenumber": "11", "addr:postcode": "10115", "addr:street": "Schwartzkopffstra\u00dfe", "addr:suburb": "Mitte", "amenity": "university", "name": "Institut f\u00fcr Marketing und Kommunikation", "website": "http://www.imk-berlin.de/"}}, {"type": "way", "id": 465440334, "nodes": [7563615874, 4604033834, 3864942897, 1638850299, 7563615874], "tags": {"addr:city": "Berlin", "addr:country": "DE", "addr:housenumber": "20", "addr:postcode": "14195", "addr:street": "Koserstra\u00dfe", "addr:suburb": "Dahlem", "alt_name": "Fachbereichs\u00fcbergreifend", "amenity": "university", "name": "Freie Universit\u00e4t Berlin", "operator": "Freie Universit\u00e4t Berlin"}}, {"type": "way", "id": 465440336, "nodes": [4604033840, 8507851266, 4604033836, 314249580, 4604033835, 4604033839, 8507851268, 4604033840], "tags": {"amenity": "university", "name": "Institut f\u00fcr Biologie, Pflanzenphysiologie und Mikrobiologie"}}, {"type": "way", "id": 478630630, "nodes": [4718423668, 4718423669, 4718423670, 4718423671, 4718423668], "tags": {"amenity": "university", "name": "Jacob und Wilhelm Grimm Zentrum", "toilets:wheelchair": "yes", "wheelchair": "limited"}}, {"type": "way", "id": 547950667, "nodes": [1638830139, 1617082129, 1617082132, 1617082143, 31388881, 31388885, 1617512092, 1638830139], "tags": {"amenity": "university", "name": "FB Philosophie und Geisteswissenschaften"}}, {"type": "way", "id": 634256702, "nodes": [5986033801, 5986033800, 8222990805, 5986033799, 5986033798, 5986033797, 5986033796, 5986033801], "tags": {"amenity": "university", "note": "\u00d6kosystemkunde/Pflanzen\u00f6kologie, Klimatologie, Biodiversit\u00e4tsdynamik terrestrischer \u00d6kosysteme", "operator": "Technische Universit\u00e4t Berlin"}}, {"type": "way", "id": 641308856, "nodes": [6039836042, 2742834285, 2742834257, 2742834239, 622920929, 6039836044, 6039836043, 6039836042], "tags": {"amenity": "university", "name": "FU Institut f. Pharmazie"}}, {"type": "way", "id": 685739920, "nodes": [635284943, 7046165109, 7046165108, 635276995, 635277016, 2175049205, 5260318856, 635284979, 635284961, 635284943], "tags": {"amenity": "university", "contact:website": "https://www.hwtk.de/", "name": "Hochschule f\u00fcr Wirtschaft, Technik und Kultur", "operator": "F+U Unternehmensgruppe", "short_name": "HWTK", "wikipedia": "de:Hochschule f\u00fcr Wirtschaft, Technik und Kultur"}}, {"type": "way", "id": 690171013, "nodes": [6475013137, 308703031, 5103492351, 308703033, 3021117659, 308703035, 308703036, 6475013136, 6475013137], "tags": {"addr:city": "Berlin", "addr:country": "DE", "addr:housenumber": "5", "addr:postcode": "12627", "addr:street": "Alice-Salomon-Platz", "addr:suburb": "Hellersdorf", "amenity": "university", "name": "Alice-Salomon-Hochschule", "phone": "+49 30 99245 0", "toilets:wheelchair": "yes", "website": "https://www.ash-berlin.eu/", "wheelchair": "yes", "wikidata": "Q2646956", "wikipedia": "de:Alice Salomon Hochschule Berlin"}}, {"type": "way", "id": 705175020, "nodes": [296397212, 296397203, 5224665610, 5224665611, 5224666735, 5224666736, 5224666737, 5224666738, 2836037677, 5224666740, 5224666741, 5224666742, 5224666743, 5224666744, 5224666745, 5224666746, 5224666747, 5224666748, 5224666749, 5224666753, 5224666754, 5224666755, 5224666756, 5224666757, 5224666750, 5224666751, 5224666752, 5224665607, 5224665606, 5224665605, 5224665613, 5224665614, 5224665615, 5224665616, 5224665617, 5224665618, 5224665619, 5224665620, 5224666721, 5224666722, 5224666723, 5224666724, 5224666725, 5224666726, 5224666727, 5224666728, 5224666729, 5224666730, 5224666731, 5224666732, 5224665608, 5224665609, 296397204, 296397205, 296397206, 296397207, 296397208, 296397209, 296397210, 296397211, 296397212], "tags": {"amenity": "university", "description": "Fachgebiete Brauwesen und Lebensmittelverfahrenstechnik", "name": "TU Berlin - Geb\u00e4udekomplex G\u00e4rungsgewerbe-Biotechnologie", "website": "https://www.lmtc.tu-berlin.de/menue/ueber_uns/standorte/standort_seestrasse/"}}, {"type": "way", "id": 792353691, "nodes": [7405870567, 7409107999, 7409107998, 7409107997, 7409107996, 7409107995, 6580319702, 6580319701, 7409107994, 7405870564, 3946979789, 3946979779, 7405870565, 7405870566, 7405870557, 7405870558, 7405870567], "tags": {"amenity": "university", "name": "Lateinamerika-Institut, Zentrale Universit\u00e4tsverwaltung"}}, {"type": "way", "id": 808112396, "nodes": [413331555, 7556762862, 7556762861, 7556762860, 7556762872, 7556762871, 7556762870, 7556762869, 7556762868, 7556762867, 7556762866, 7556762865, 7556762864, 7556762863, 432487841, 413331556, 413331555], "tags": {"amenity": "university"}}, {"type": "way", "id": 835478707, "nodes": [314250071, 1628947889, 1628947887, 1628947884, 6513463449, 1628947882, 1628947878, 2932531957, 2932531956, 2932531953, 689828366, 689828368, 7798330989, 7798331009, 1315432354, 1315432355, 1315432356, 1315432357, 1315432359, 1315432361, 1315432363, 1315432365, 1315432367, 314250071], "tags": {"amenity": "university", "name": "TU Berlin - Campus Dahlem"}}, {"type": "way", "id": 878359762, "nodes": [8171495956, 8171495963, 8171495953, 2297930540, 2297930528, 638521446, 8222392095, 8222392094, 8222392092, 8222392096, 8266968880, 8171495959, 8171495956], "tags": {"amenity": "university", "name": "Institut f\u00fcr Meteorologie, FU Berlin"}}, {"type": "way", "id": 878359763, "nodes": [8171495961, 8171495957, 8171495949, 8171495954, 8171495948, 8171495951, 8171495947, 8171495946, 8171495964, 8171495955, 8171495962, 8171495952, 8171495958, 8171495950, 8171495960, 8171354565, 8171354566, 8171354562, 8171354564, 8171495965, 8171495961], "tags": {"amenity": "university"}}, {"type": "way", "id": 884024778, "nodes": [8221447483, 8221447482, 8221447481, 2119275707, 8221447483], "tags": {"amenity": "university", "name": "BSP Business School Berlin", "toilets:wheelchair": "yes", "website": "http://www.businessschool-berlin-potsdam.de/", "wheelchair": "limited", "wikidata": "Q1017599", "wikipedia": "de:BSP Business School Berlin"}}, {"type": "way", "id": 887655171, "nodes": [8252906140, 8252919721, 8252919718, 8252919717, 8252919722, 8252919723, 8252919724, 8252897916, 8252919719, 8252919720, 8252906139, 8252906138, 7554401412, 8252906140], "tags": {"amenity": "university"}}, {"type": "way", "id": 887666652, "nodes": [8252969973, 7554401435, 8252969974, 8252969983, 8252969977, 8252969980, 8252969972, 8252969982, 8252969973], "tags": {"amenity": "university"}}, {"type": "way", "id": 887666653, "nodes": [8252969979, 8252969976, 8252969981, 8252969971, 8252969979], "tags": {"amenity": "university"}}, {"type": "way", "id": 887668839, "nodes": [7554401093, 8252965697, 8252965703, 8252965694, 8252965700, 8252965696, 8252965699, 8252965701, 7554401093], "tags": {"amenity": "university"}}, {"type": "way", "id": 887668840, "nodes": [8252965695, 8252965698, 8252965702, 2932531967, 6027984734, 8252965695], "tags": {"amenity": "university"}}, {"type": "way", "id": 887670391, "nodes": [8253027688, 8253027703, 8253027679, 8253027700, 8253027693, 8253027698, 8253027690, 8253027696, 8253027686, 8253027680, 7560770303, 8253027683, 8253027692, 7560770304, 8253027688], "tags": {"amenity": "university"}}, {"type": "way", "id": 887671238, "nodes": [241890880, 8253027701, 8253027694, 8253027684, 8253027691, 8253027682, 8253027681, 8253027702, 8253027699, 8253027697, 8253027704, 8253027689, 8253027695, 8253027685, 335848046, 335848047, 241890880], "tags": {"amenity": "university"}}, {"type": "relation", "id": 1273140, "members": [{"type": "way", "ref": 634256702, "role": "outer"}, {"type": "way", "ref": 270675907, "role": "outer"}, {"type": "way", "ref": 204128041, "role": "outer"}, {"type": "way", "ref": 196167025, "role": "outer"}, {"type": "way", "ref": 103627716, "role": "outer"}, {"type": "way", "ref": 85409959, "role": "outer"}, {"type": "way", "ref": 116904495, "role": "outer"}, {"type": "way", "ref": 11634640, "role": "outer"}, {"type": "way", "ref": 314546449, "role": "outer"}, {"type": "way", "ref": 270684464, "role": "outer"}], "tags": {"alt_name": "TU Berlin", "amenity": "university", "name": "Technische Universit\u00e4t Berlin", "type": "multipolygon", "wikidata": "Q51985"}}, {"type": "relation", "id": 1470068, "members": [{"type": "way", "ref": 103716475, "role": "outer"}, {"type": "way", "ref": 103716391, "role": "inner"}, {"type": "way", "ref": 103716159, "role": "inner"}, {"type": "way", "ref": 103716082, "role": "inner"}], "tags": {"addr:city": "Berlin", "addr:country": "DE", "addr:housenumber": "20", "addr:postcode": "14195", "addr:street": "Koserstra\u00dfe", "addr:suburb": "Dahlem", "amenity": "university", "building": "yes", "operator": "Freie Universit\u00e4t Berlin", "source": "Geoportal Berlin / Hausumringe", "type": "multipolygon"}}, {"type": "relation", "id": 4155696, "members": [{"type": "relation", "ref": 4156007, "role": "level_2"}, {"type": "relation", "ref": 4156006, "role": "level_1"}, {"type": "relation", "ref": 4155946, "role": "level_0"}, {"type": "relation", "ref": 4155879, "role": "level_-1"}, {"type": "way", "ref": 310840608, "role": "outer"}, {"type": "node", "ref": 3163301968, "role": "entrance"}], "tags": {"addr:city": "Berlin", "addr:country": "DE", "addr:housenumber": "7", "addr:postcode": "10587", "addr:street": "Ernst-Reuter-Platz", "amenity": "university", "building": "yes", "building:architecture": "modern", "building:cladding": "concrete", "building:facade:colour": "grey", "building:levels": "4", "building:max_level": "2", "building:min_level": "1", "building:roof:material": "cardboard", "building:roof:shape": "flat", "height": "100", "name": "Telekom Innovation Laboratories", "roof:colour": "black", "type": "building"}}, {"type": "relation", "id": 4156819, "members": [{"type": "relation", "ref": 4164669, "role": "level_3"}, {"type": "relation", "ref": 4164550, "role": "level_2"}, {"type": "relation", "ref": 4160662, "role": "level_1"}, {"type": "relation", "ref": 4163783, "role": "level_0"}, {"type": "relation", "ref": 4160616, "role": "level_-1"}, {"type": "node", "ref": 3163826149, "role": "entrance"}, {"type": "way", "ref": 310879730, "role": "outer"}], "tags": {"addr:city": "Berlin", "addr:country": "DE", "addr:housenumber": "7", "addr:postcode": "10587", "addr:street": "Ernst-Reuter-Platz", "amenity": "university", "building": "yes", "building:architecture": "modern", "building:cladding": "concrete", "building:facade:colour": "grey", "building:levels": "4", "building:max_level": "2", "building:min_level": "1", "building:roof:material": "cardboard", "building:roof:shape": "flat", "height": "14.5", "name": "Telekom Innovation", "roof:colour": "black", "type": "building"}}, {"type": "relation", "id": 6670113, "members": [{"type": "way", "ref": 43006622, "role": "outer"}, {"type": "way", "ref": 449532437, "role": "outer"}, {"type": "way", "ref": 235809307, "role": "outer"}], "tags": {"amenity": "university", "name": "Humboldt-Universit\u00e4t Campus Nord", "name:de": "Humboldt-Universit\u00e4t Campus Nord", "name:en": "Humboldt University North Campus", "type": "multipolygon"}}, {"type": "relation", "id": 7673848, "members": [{"type": "way", "ref": 534581767, "role": "outer"}, {"type": "way", "ref": 534238450, "role": "outer"}], "tags": {"amenity": "university", "name": "Akademie der K\u00fcnste", "type": "multipolygon"}}, {"type": "relation", "id": 8422596, "members": [{"type": "way", "ref": 56072711, "role": "outer"}, {"type": "way", "ref": 42507104, "role": "outer"}, {"type": "way", "ref": 637457273, "role": "outer"}], "tags": {"amenity": "university", "contact:fax": "+49 (0)30 85789199", "contact:phone": "+49 (0)30 857890", "name": "Hochschule f\u00fcr Wirtschaft und Recht Berlin - Campus Sch\u00f6neberg", "name:de": "Hochschule f\u00fcr Wirtschaft und Recht Berlin - Campus Sch\u00f6neberg", "name:en": "Berlin School of Economics and Law - Schoeneberg Campus", "type": "multipolygon", "website": "https://www.hwr-berlin.de/", "wheelchair": "limited", "wikidata": "Q464443"}}, {"type": "relation", "id": 9643578, "members": [{"type": "way", "ref": 148808631, "role": "outer"}, {"type": "way", "ref": 693873803, "role": "inner"}], "tags": {"addr:city": "Berlin", "addr:country": "DE", "addr:housenumber": "12-16", "addr:postcode": "14195", "addr:street": "K\u00f6nigin-Luise-Stra\u00dfe", "addr:suburb": "Dahlem", "alt_name": "Institut f\u00fcr Biologie", "alt_name_1": "AG Pflanzenphysiologie und Mikrobiologie", "amenity": "university", "building": "university", "heritage": "4", "heritage:operator": "lda", "heritage:website": "http://www.stadtentwicklung.berlin.de/cgi-bin/hidaweb/getdoc.pl?DOK_TPL=lda_doc.tpl&KEY=obj%2009075365", "historic": "heritage", "image": "http://commons.wikimedia.org/wiki/File:Universit%C3%A4tsinstitut_K%C3%B6nigin-Luise-Str_12-16.jpg", "lda:criteria": "Baudenkmal", "name": "Institut f\u00fcr Pflanzenphysiologie und Microbiologie", "operator": "Freie Universit\u00e4t Berlin", "ref:lda": "09075365", "type": "multipolygon"}}, {"type": "relation", "id": 11148577, "members": [{"type": "way", "ref": 149956948, "role": "outer"}, {"type": "way", "ref": 808874216, "role": "outer"}, {"type": "way", "ref": 808874217, "role": "outer"}, {"type": "way", "ref": 808874218, "role": "outer"}, {"type": "way", "ref": 808874220, "role": "outer"}, {"type": "way", "ref": 808874221, "role": "outer"}, {"type": "way", "ref": 808874225, "role": "outer"}, {"type": "way", "ref": 808874222, "role": "outer"}], "tags": {"alt_name": "FU Berlin", "amenity": "university", "name": "Freie Universit\u00e4t Berlin", "toilets:wheelchair": "yes", "type": "multipolygon", "wheelchair": "limited", "wikidata": "Q153006"}}, {"type": "relation", "id": 12741778, "members": [{"type": "way", "ref": 120456814, "role": "outer"}, {"type": "way", "ref": 945541957, "role": "outer"}, {"type": "way", "ref": 945541956, "role": "outer"}, {"type": "way", "ref": 330840127, "role": "outer"}], "tags": {"amenity": "university", "name": "Humboldt-Universit\u00e4t zu Berlin - Campus Mitte", "name:cs": "Humboldtova univerzita v Berl\u00edn\u011b", "name:en": "Humboldt University in Berlin Mitte Campus", "phone": "+49 30 20930", "type": "multipolygon", "website": "https://www.hu-berlin.de/de", "wheelchair": "limited", "wikidata": "Q152087", "wikipedia": "de:Humboldt-Universit\u00e4t zu Berlin"}}, {"type": "area", "id": 2502645702, "tags": {"building": "residential", "building:flats": "1", "building:ruian:type": "3", "name": "Berlin", "ref:ruian:building": "23347147", "source": "cuzk:ruian"}}, {"type": "area", "id": 2551721400, "tags": {"building": "yes", "building:levels": "4", "name": "Berlin", "tourism": "hotel"}}, {"type": "area", "id": 2634838222, "tags": {"building": "university", "building:levels": "2", "name": "Berlin"}}, {"type": "area", "id": 2668687348, "tags": {"addr:housenumber": "15", "addr:street": "Dame Street", "alcohol": "yes", "amenity": "cafe", "name": "Berlin", "old_name": "King Charlie's"}}, {"type": "area", "id": 2766095709, "tags": {"building": "yes", "name": "Berlin"}}, {"type": "area", "id": 2789053526, "tags": {"building": "yes", "name": "Berlin", "source": "cadastre-dgi-fr source : Direction G\u00e9n\u00e9rale des Finances Publiques - Cadastre. Mise \u00e0 jour : 2016"}}, {"type": "area", "id": 2799530417, "tags": {"name": "Berlin", "place": "isolated_dwelling"}}, {"type": "area", "id": 2802951130, "tags": {"building": "yes", "name": "Berlin", "shop": "yes"}}, {"type": "area", "id": 2803158929, "tags": {"addr:city": "Villa Nueva", "addr:street": "5a Avenida", "building": "yes", "name": "Berlin", "shop": "yes"}}, {"type": "area", "id": 2826648190, "tags": {"addr:city": "Quito", "addr:street": "Mariano Echeverria", "building": "commercial", "building:levels": "1", "name": "Berlin", "source": "Reconocimiento cartogr\u00e1fico de campo 2016 por KG."}}, {"type": "area", "id": 2826681623, "tags": {"admin_level": "9", "alt_name": "Berlin", "boundary": "administrative", "comuna": "Villavicencio", "editor": "opengislab@openmailbox.org", "landuse": "residential", "name": "Berlin", "source": "DIVIPOLA de la Secretaria de planeaci\u00f3n Alcaldia de Pereira, POT2011, POT2015"}}, {"type": "area", "id": 2831297422, "tags": {"building": "hotel", "building:levels": "5", "internet_access": "wlan", "name": "Berlin", "smoking": "no", "tourism": "hotel"}}, {"type": "area", "id": 2871857969, "tags": {"addr:street": "Avenida Berl\u00edn", "building": "yes", "name": "Berlin", "shop": "bakery", "source": "Reconocimiento terrestre 2016 por Kaart."}}, {"type": "area", "id": 2921319958, "tags": {"building": "dormitory", "building:levels": "6", "name": "Berlin", "roof:levels": "0", "start_date": "2017"}}, {"type": "area", "id": 3076810888, "tags": {"landuse": "residential", "name": "Berlin"}}, {"type": "area", "id": 3162624832, "tags": {"building": "house", "name": "Berlin"}}, {"type": "area", "id": 3163949817, "tags": {"building": "farm", "name": "Berlin"}}, {"type": "area", "id": 3182142304, "tags": {"alt_name": "Barrio Berlin", "name": "Berlin", "place": "neighbourhood", "source": "http://gps.sisfo.com"}}, {"type": "area", "id": 3600062422, "tags": {"ISO3166-2": "DE-BE", "TMC:cid_58:tabcd_1:Class": "Area", "TMC:cid_58:tabcd_1:LCLversion": "12.0", "TMC:cid_58:tabcd_1:LocationCode": "266", "admin_level": "4", "alt_name:vi": "B\u00e9c-lin", "boundary": "administrative", "contact:facebook": "http://www.facebook.com/Berlin", "contact:website": "http://www.berlin.de", "de:amtlicher_gemeindeschluessel": "11000000", "de:place": "city", "de:place:note": "Kreisfreie Stadt", "de:regionalschluessel": "110000000000", "geographical_region": "Barnim;Berliner Urstromtal;Teltow;Nauener Platte", "license_plate_code": "B", "name": "Berlin", "name:af": "Berlyn", "name:als": "Berlin", "name:am": "\u1260\u122d\u120a\u1295", "name:an": "Berl\u00edn", "name:ang": "Berlin", "name:ar": "\u0628\u0631\u0644\u064a\u0646", "name:arc": "\u0712\u072a\u0720\u071d\u0722", "name:ast": "Berl\u00edn", "name:az": "Berlin", "name:ba": "\u0411\u0435\u0440\u043b\u0438\u043d", "name:bar": "Berlin", "name:bat-smg": "Berl\u012bns", "name:be": "\u0411\u0435\u0440\u043b\u0456\u043d", "name:be-tarask": "\u0411\u044d\u0440\u043b\u0456\u043d", "name:bg": "\u0411\u0435\u0440\u043b\u0438\u043d", "name:bi": "Berlin", "name:bn": "\u09ac\u09be\u09b0\u09cd\u09b2\u09bf\u09a8", "name:bo": "\u0f54\u0f7a\u0f0b\u0f63\u0f72\u0f44\u0f0b", "name:br": "Berlin", "name:bs": "Berlin", "name:ca": "Berl\u00edn", "name:cbk-zam": "Berl\u00edn", "name:crh": "Berlin", "name:cs": "Berl\u00edn", "name:csb": "Berl\u00ebno", "name:cu": "\u0411\u0435\u0440\u043b\u0438\u043d\u044a", "name:cv": "\u0411\u0435\u0440\u043b\u0438\u043d", "name:cy": "Berlin", "name:da": "Berlin", "name:de": "Berlin", "name:diq": "Berlin", "name:dsb": "Barli\u0144", "name:el": "\u0392\u03b5\u03c1\u03bf\u03bb\u03af\u03bd\u03bf", "name:en": "Berlin", "name:eo": "Berlino", "name:es": "Berl\u00edn", "name:et": "Berliin", "name:eu": "Berlin", "name:fa": "\u0628\u0631\u0644\u06cc\u0646", "name:fi": "Berliini", "name:fo": "Berlin", "name:fr": "Berlin", "name:frp": "B\u00e8rlin", "name:fur": "Berlin", "name:fy": "Berlyn", "name:ga": "Beirl\u00edn", "name:gd": "Berlin", "name:gl": "Berl\u00edn", "name:gn": "Berlin", "name:gv": "Berleen", "name:haw": "Pelelina", "name:he": "\u05d1\u05e8\u05dc\u05d9\u05df", "name:hi": "\u092c\u0930\u094d\u0932\u093f\u0928", "name:hr": "Berlin", "name:hsb": "Berlin", "name:ht": "B\u00e8len", "name:hu": "Berlin", "name:hy": "\u0532\u0565\u057c\u056c\u056b\u0576", "name:ia": "Berlin", "name:id": "Berlin", "name:ie": "Berlin", "name:ilo": "Berlin, Alemania", "name:io": "Berlin", "name:is": "Berl\u00edn", "name:it": "Berlino", "name:ja": "\u30d9\u30eb\u30ea\u30f3", "name:jbo": "berlin", "name:jv": "Berlin", "name:ka": "\u10d1\u10d4\u10e0\u10da\u10d8\u10dc\u10d8", "name:kab": "Berlin", "name:kk": "\u0411\u0435\u0440\u043b\u0438\u043d", "name:ko": "\ubca0\ub97c\ub9b0", "name:ksh": "B\u00e4lliin", "name:ku": "Berl\u00een", "name:kv": "\u0411\u0435\u0440\u043b\u0438\u043d", "name:kw": "Berlin", "name:la": "Berolinum", "name:lb": "Berlin", "name:lg": "Berlin", "name:li": "Berlien", "name:lij": "Berlin", "name:lmo": "Berlin", "name:ln": "Berlin", "name:lt": "Berlynas", "name:lv": "Berl\u012bne", "name:lzh": "\u67cf\u6797", "name:mg": "Berlin", "name:mk": "\u0411\u0435\u0440\u043b\u0438\u043d", "name:ml": "\u0d2c\u0d46\u0d30\u0d4d\u200d\u0d32\u0d3f\u0d28\u0d4d", "name:mn": "\u0411\u0435\u0440\u043b\u0438\u043d", "name:mr": "\u092c\u0930\u094d\u0932\u093f\u0928", "name:ms": "Berlin", "name:mt": "Berlin", "name:myv": "\u0411\u0435\u0440\u043b\u0438\u043d \u043e\u0448", "name:na": "Berlin", "name:nah": "Berlin", "name:nan": "Berlin", "name:nap": "Berlino", "name:nds": "Berlin", "name:nl": "Berlijn", "name:nn": "Berlin", "name:no": "Berlin", "name:nov": "Berlin", "name:nrm": "B\u00e8rl\u00een", "name:oc": "Berlin", "name:os": "\u0411\u0435\u0440\u043b\u0438\u043d", "name:pam": "Berlin", "name:pdc": "Berlin, Deitschland", "name:pl": "Berlin", "name:pms": "Berlin", "name:prefix:city": "Kreisfreie Stadt", "name:prefix:state": "Land", "name:pt": "Berlim", "name:qu": "Berlin", "name:rm": "Berlin", "name:rmy": "Berlin", "name:ro": "Berlin", "name:roa-rup": "Berlin", "name:roa-tara": "Berline", "name:ru": "\u0411\u0435\u0440\u043b\u0438\u043d", "name:sah": "\u0411\u0435\u0440\u043b\u0438\u043d", "name:sc": "Berlinu", "name:scn": "Birlinu", "name:sco": "Berlin", "name:se": "Berlin", "name:sh": "Berlin", "name:short": "BE", "name:sk": "Berl\u00edn", "name:sl": "Berlin", "name:so": "Berlin", "name:sq": "Berlini", "name:sr": "\u0411\u0435\u0440\u043b\u0438\u043d", "name:stq": "Berlin", "name:su": "Berliini", "name:sv": "Berlin", "name:sw": "Berlin", "name:szl": "Berlin", "name:ta": "\u0baa\u0bc6\u0bb0\u0bcd\u0bb2\u0bbf\u0ba9\u0bcd", "name:te": "\u0c2c\u0c46\u0c30\u0c4d\u0c32\u0c3f\u0c28\u0c4d", "name:tet": "Berl\u00edn", "name:tg": "\u0411\u0435\u0440\u043b\u0438\u043d", "name:th": "\u0e40\u0e1a\u0e2d\u0e23\u0e4c\u0e25\u0e34\u0e19", "name:tl": "Berlin", "name:tpi": "Berlin", "name:tr": "Berlin", "name:tt": "\u0411\u0435\u0440\u043b\u0438\u043d", "name:ty": "Berlin", "name:tzl": "Berlin", "name:uk": "\u0411\u0435\u0440\u043b\u0456\u043d", "name:ur": "\u0628\u0631\u0644\u0646", "name:uz": "Berlin", "name:vec": "Berlin", "name:vi": "Berlin", "name:vls": "Berlyn", "name:wo": "Berlin", "name:yi": "\u05d1\u05e2\u05e8\u05dc\u05d9\u05df", "name:yo": "Berlin", "name:yue": "\u67cf\u6797", "name:zh": "\u67cf\u6797", "name:zu": "Berlin", "official_name": "Stadtstaat Berlin", "official_status": "Land", "official_status:de": "Land", "official_status:en": "State", "official_status:ru": "\u0437\u0435\u043c\u043b\u044f", "old_name:vi": "B\u00e1 Linh", "place": "state", "population": "3440441", "ref:nuts": "DE3;DE30;DE300", "ref:nuts:1": "DE3", "ref:nuts:2": "DE30", "ref:nuts:3": "DE300", "source:population": "http://www.statistik-berlin-brandenburg.de/Publikationen/Stat_Berichte/2010/SB_A1-1_A2-4_q01-10_BE.pdf 2010-10-01", "state_code": "BE", "type": "boundary", "wikidata": "Q64", "wikipedia": "de:Berlin"}}, {"type": "area", "id": 3600119876, "tags": {"admin_level": "8", "border_type": "city", "boundary": "administrative", "is_in": "USA, Georgia", "is_in:country": "USA", "is_in:country_code": "US", "is_in:iso_3166_2": "US:GA", "is_in:state": "Georgia", "is_in:state_code": "GA", "name": "Berlin", "place": "city", "source": "TIGER/Line\u00ae 2008 Place Shapefiles (http://www.census.gov/geo/www/tiger/)", "tiger:CLASSFP": "C1", "tiger:CPI": "N", "tiger:FUNCSTAT": "A", "tiger:LSAD": "25", "tiger:MTFCC": "G4110", "tiger:NAME": "Berlin", "tiger:NAMELSAD": "Berlin city", "tiger:PCICBSA": "N", "tiger:PCINECTA": "N", "tiger:PLACEFP": "07304", "tiger:PLACENS": "02403860", "tiger:PLCIDFP": "1307304", "tiger:STATEFP": "13", "tiger:reviewed": "no", "type": "boundary", "wikidata": "Q2345711", "wikipedia": "en:Berlin, Georgia"}}, {"type": "area", "id": 3600126290, "tags": {"admin_level": "8", "border_type": "village", "boundary": "administrative", "is_in": "USA, Illinois", "is_in:country": "USA", "is_in:country_code": "US", "is_in:iso_3166_2": "US:IL", "is_in:state": "Illinois", "is_in:state_code": "IL", "name": "Berlin", "place": "village", "source": "TIGER/Line\u00ae 2008 Place Shapefiles (http://www.census.gov/geo/www/tiger/)", "tiger:CLASSFP": "C1", "tiger:CPI": "N", "tiger:FUNCSTAT": "A", "tiger:LSAD": "47", "tiger:MTFCC": "G4110", "tiger:NAME": "Berlin", "tiger:NAMELSAD": "Berlin village", "tiger:PCICBSA": "N", "tiger:PCINECTA": "N", "tiger:PLACEFP": "05443", "tiger:PLACENS": "02398103", "tiger:PLCIDFP": "1705443", "tiger:STATEFP": "17", "type": "boundary", "wikidata": "Q2504681", "wikipedia": "en:Berlin, Illinois"}}, {"type": "area", "id": 3600133689, "tags": {"admin_level": "8", "border_type": "town", "boundary": "administrative", "is_in:country": "USA", "is_in:country_code": "US", "is_in:iso_3166_2": "US:MD", "is_in:state": "Maryland", "is_in:state_code": "MD", "name": "Berlin", "place": "town", "source": "TIGER/Line\u00ae 2008 Place Shapefiles (http://www.census.gov/geo/www/tiger/)", "tiger:CLASSFP": "C1", "tiger:CPI": "N", "tiger:FUNCSTAT": "A", "tiger:LSAD": "43", "tiger:MTFCC": "G4110", "tiger:NAME": "Berlin", "tiger:NAMELSAD": "Berlin town", "tiger:PCICBSA": "N", "tiger:PCINECTA": "N", "tiger:PLACEFP": "06800", "tiger:PLACENS": "02390722", "tiger:PLCIDFP": "2406800", "tiger:STATEFP": "24", "type": "boundary", "wikidata": "Q614184", "wikipedia": "en:Berlin, Maryland"}}, {"type": "area", "id": 3600170184, "tags": {"admin_level": "8", "border_type": "city", "boundary": "administrative", "name": "Berlin", "place": "city", "source": "TIGER/Line\u00ae 2008 Place Shapefiles (http://www.census.gov/geo/www/tiger/)", "type": "boundary", "wikidata": "Q821244", "wikipedia": "en:Berlin, New Hampshire"}}, {"type": "area", "id": 3600170680, "tags": {"admin_level": "8", "boundary": "administrative", "is_in:country": "USA", "is_in:country_code": "US", "is_in:county": "Camden, NJ", "is_in:iso_3166_2": "US:NJ", "is_in:state": "New Jersey", "is_in:state_code": "NJ", "name": "Berlin", "source": "TIGER/Line\u00ae 2008 Place Shapefiles (http://www.census.gov/geo/www/tiger/)", "tiger:CLASSFP": "C5", "tiger:CPI": "N", "tiger:FUNCSTAT": "A", "tiger:LSAD": "21", "tiger:MTFCC": "G4110", "tiger:NAME": "Berlin", "tiger:NAMELSAD": "Berlin borough", "tiger:PCICBSA": "N", "tiger:PCINECTA": "N", "tiger:PLACEFP": "05440", "tiger:PLACENS": "00885158", "tiger:PLCIDFP": "3405440", "tiger:STATEFP": "34", "type": "boundary", "wikidata": "Q1086827", "wikipedia": "en:Berlin, New Jersey"}}, {"type": "area", "id": 3600181615, "tags": {"admin_level": "8", "border_type": "city", "boundary": "administrative", "is_in": "USA, North Dakota", "is_in:country": "USA", "is_in:country_code": "US", "is_in:iso_3166_2": "US:ND", "is_in:state": "North Dakota", "is_in:state_code": "ND", "name": "Berlin", "place": "city", "source": "TIGER/Line\u00ae 2008 Place Shapefiles (http://www.census.gov/geo/www/tiger/)", "tiger:CLASSFP": "C5", "tiger:CPI": "N", "tiger:FUNCSTAT": "A", "tiger:LSAD": "25", "tiger:MTFCC": "G4110", "tiger:NAME": "Berlin", "tiger:NAMELSAD": "Berlin city", "tiger:PCICBSA": "N", "tiger:PCINECTA": "N", "tiger:PLACEFP": "06300", "tiger:PLACENS": "01035929", "tiger:PLCIDFP": "3806300", "tiger:STATEFP": "38", "type": "boundary", "wikidata": "Q821229", "wikipedia": "en:Berlin, North Dakota"}}, {"type": "area", "id": 3600189091, "tags": {"admin_level": "8", "border_type": "borough", "boundary": "administrative", "is_in": "USA, Pennsylvania", "is_in:country": "USA", "is_in:country_code": "US", "is_in:iso_3166_2": "US:PA", "is_in:state": "Pennsylvania", "is_in:state_code": "PA", "name": "Berlin", "place": "borough", "source": "TIGER/Line\u00ae 2008 Place Shapefiles (http://www.census.gov/geo/www/tiger/)", "tiger:CLASSFP": "C5", "tiger:CPI": "N", "tiger:FUNCSTAT": "A", "tiger:LSAD": "21", "tiger:MTFCC": "G4110", "tiger:NAME": "Berlin", "tiger:NAMELSAD": "Berlin borough", "tiger:PCICBSA": "N", "tiger:PCINECTA": "N", "tiger:PLACEFP": "05776", "tiger:PLACENS": "01215582", "tiger:PLCIDFP": "4205776", "tiger:STATEFP": "42", "type": "boundary", "wikidata": "Q1130950", "wikipedia": "en:Berlin, Pennsylvania"}}, {"type": "area", "id": 3601844156, "tags": {"addr:county": "Worcester County", "admin_level": "8", "boundary": "administrative", "name": "Berlin", "place": "town", "type": "boundary", "wikidata": "Q524646", "wikipedia": "en:Berlin, Massachusetts"}}, {"type": "area", "id": 3603490159, "tags": {"addr:city": "Warszawa", "addr:city:simc": "0918123", "addr:housenumber": "14", "addr:postcode": "02-823", "addr:street": "Osma\u0144ska", "addr:street:sym_ul": "15329", "building": "yes", "name": "Berlin", "source:addr": "mapa.um.warszawa.pl", "type": "multipolygon"}}, {"type": "area", "id": 3607757029, "tags": {"admin_level": "9", "alt_name": "Berlin", "boundary": "administrative", "comuna": "Villavicencio", "editor": "opengislab@openmailbox.org", "landuse": "residential", "name": "Berlin", "type": "boundary"}}, {"type": "area", "id": 3608898132, "tags": {"admin_level": "8", "boundary": "administrative", "gnis:feature_id": "1462042", "name": "Berlin", "type": "boundary", "wikidata": "Q821245", "wikipedia": "en:Berlin, Vermont"}}, {"type": "area", "id": 3611042445, "tags": {"admin_level": "8", "border_type": "town", "boundary": "administrative", "name": "Berlin", "place": "town", "type": "boundary", "wikidata": "Q821199", "wikipedia": "en:Berlin, Connecticut"}}]}